adsh,cik,name,sic,countryba,stprba,cityba,zipba,bas1,bas2,baph,countryma,stprma,cityma,zipma,mas1,mas2,countryinc,stprinc,ein,former,changed,afs,wksi,fye,form,period,fy,fp,filed,accepted,prevrpt,detail,instance,nciks,aciks,pubfloatusd,floatdate,floataxis,floatmems
0000891618-09-000150,1164727,NEWMONT MINING CORP /DE/,1040.0,US,CO,GREENWOOD VILLAGE,80222,6363 SOUTH FIDDLERS GREEN CIRCLE,,303-863-7414,US,CO,GREENWOOD VILLAGE,80222,6363 SOUTH FIDDLERS GREEN CIRCLE,,US,DE,841611629.0,DELTA HOLDCO CORP,20020109.0,1-LAF,1,1231.0,10-Q,20090331.0,2009.0,Q1,20090430,2009-04-29 21:32:00.0,0,0,nem-20090331.xml,1,,23670310912.0,20080630.0,,
0000950123-09-024448,1164727,NEWMONT MINING CORP /DE/,1040.0,US,CO,GREENWOOD VILLAGE,80111,6363 SOUTH FIDDLERS GREEN CIRCLE,,303-863-7414,US,CO,GREENWOOD VILLAGE,80111,6363 SOUTH FIDDLERS GREEN CIRCLE,,US,DE,841611629.0,DELTA HOLDCO CORP,20020109.0,1-LAF,1,1231.0,10-Q,20090630.0,2009.0,Q2,20090723,2009-07-22 19:17:00.0,0,0,nem-20090630.xml,1,,23670310912.0,20080630.0,,
0000950123-09-054293,1164727,NEWMONT MINING CORP /DE/,1040.0,US,CO,GREENWOOD VILLAGE,80111,6363 SOUTH FIDDLERS GREEN CIRCLE,,303-863-7414,US,CO,GREENWOOD VILLAGE,80111,6363 SOUTH FIDDLERS GREEN CIRCLE,,US,DE,841611629.0,DELTA HOLDCO CORP,20020109.0,1-LAF,1,1231.0,10-Q,20090930.0,2009.0,Q3,20091029,2009-10-28 17:52:00.0,0,0,nem-20090930.xml,1,,23670310912.0,20080630.0,,
0000950123-10-016613,1164727,NEWMONT MINING CORP /DE/,1040.0,US,CO,GREENWOOD VILLAGE,80111,6363 SOUTH FIDDLERS GREEN CIRCLE,,303-863-7414,US,CO,GREENWOOD VILLAGE,80111,6363 SOUTH FIDDLERS GREEN CIRCLE,,US,DE,841611629.0,DELTA HOLDCO CORP,20020109.0,1-LAF,1,1231.0,10-K,20091231.0,2009.0,FY,20100225,2010-02-25 06:06:00.0,0,0,nem-20091231.xml,1,,20005984256.0,20090630.0,,
0001047469-10-002778,2809,AGNICO EAGLE MINES LTD,1040.0,CA,ON,TORONTO,M5C 2Y7,145 KING STREET EAST,SUITE 400,4169471212,CA,ON,TORONTO,M5C 2Y7,145 KING STREET EAST,SUITE 400,CA,ON,0.0,,,1-LAF,1,1231.0,20-F,20091231.0,2009.0,FY,20100326,2010-03-26 16:07:00.0,0,0,aem-20091231.xml,1,,,,,
0001104659-10-017012,756894,BARRICK GOLD CORP,1040.0,CA,ON,TORONTO ONTARIO CANA,M5J2S1,"BCE PLACE, CANADA TRUST TOWER",161 BAY STREET SUITE 3700,4163077470,CA,ON,ONTARIO M5J2S1,M5J2S1,"BCE PLACE, CANADA TRUST TOWER",P O BOX 212 TORONTO,,,0.0,BARRICK RESOURCES CORP,19860109.0,,0,1231.0,40-F,20091231.0,2009.0,FY,20100329,2010-03-29 17:07:00.0,0,0,abx-20091231.xml,1,,,,,
0000950123-10-038469,1164727,NEWMONT MINING CORP /DE/,1040.0,US,CO,GREENWOOD VILLAGE,80111,6363 SOUTH FIDDLERS GREEN CIRCLE,,303-863-7414,US,CO,GREENWOOD VILLAGE,80111,6363 SOUTH FIDDLERS GREEN CIRCLE,,US,DE,841611629.0,DELTA HOLDCO CORP,20020109.0,1-LAF,1,1231.0,10-Q,20100331.0,2010.0,Q1,20100427,2010-04-27 06:04:00.0,0,0,nem-20100331.xml,1,,20005984256.0,20090630.0,,
0001047469-10-005246,2809,AGNICO EAGLE MINES LTD,1040.0,CA,ON,TORONTO,M5C 2Y7,145 KING STREET EAST,SUITE 400,4169471212,CA,ON,TORONTO,M5C 2Y7,145 KING STREET EAST,SUITE 400,CA,ON,0.0,,,1-LAF,0,1231.0,6-K,20100331.0,2010.0,Q1,20100513,2010-05-13 15:38:00.0,0,0,aem-20100331.xml,1,,,,,
0000950123-10-068690,1164727,NEWMONT MINING CORP /DE/,1040.0,US,CO,GREENWOOD VILLAGE,80111,6363 SOUTH FIDDLERS GREEN CIRCLE,,303-863-7414,US,CO,GREENWOOD VILLAGE,80111,6363 SOUTH FIDDLERS GREEN CIRCLE,,US,DE,841611629.0,DELTA HOLDCO CORP,20020109.0,1-LAF,1,1231.0,10-Q,20100630.0,2010.0,Q2,20100728,2010-07-27 20:46:00.0,0,1,nem-20100331.xml,1,,20005984256.0,20090630.0,,
0001047469-10-007421,2809,AGNICO EAGLE MINES LTD,1040.0,CA,ON,TORONTO,M5C 2Y7,145 KING STREET EAST,SUITE 400,4169471212,CA,ON,TORONTO,M5C 2Y7,145 KING STREET EAST,SUITE 400,CA,ON,0.0,,,1-LAF,0,1231.0,6-K,20100630.0,2010.0,Q2,20100812,2010-08-12 11:56:00.0,0,1,aem-20100630.xml,1,,,,,
0000950123-10-098972,1164727,NEWMONT MINING CORP /DE/,1040.0,US,CO,GREENWOOD VILLAGE,80111,6363 SOUTH FIDDLERS GREEN CIRCLE,,303-863-7414,US,CO,GREENWOOD VILLAGE,80111,6363 SOUTH FIDDLERS GREEN CIRCLE,,US,DE,841611629.0,DELTA HOLDCO CORP,20020109.0,1-LAF,1,1231.0,10-Q,20100930.0,2010.0,Q3,20101102,2010-11-01 19:55:00.0,0,1,nem-20100930.xml,1,,20005984256.0,20090930.0,,
0001047469-10-009664,2809,AGNICO EAGLE MINES LTD,1040.0,CA,ON,TORONTO,M5C 2Y7,145 KING STREET EAST,SUITE 400,4169471212,CA,ON,TORONTO,M5C 2Y7,145 KING STREET EAST,SUITE 400,CA,ON,0.0,,,1-LAF,0,1231.0,6-K,20100930.0,2010.0,Q3,20101112,2010-11-12 11:16:00.0,0,1,aem-20100930.xml,1,,,,,
0000950123-11-017350,1164727,NEWMONT MINING CORP /DE/,1040.0,US,CO,GREENWOOD VILLAGE,80111,6363 SOUTH FIDDLERS GREEN CIRCLE,,303-863-7414,US,CO,GREENWOOD VILLAGE,80111,6363 SOUTH FIDDLERS GREEN CIRCLE,,US,DE,841611629.0,DELTA HOLDCO CORP,20020109.0,1-LAF,1,1231.0,10-K,20101231.0,2010.0,FY,20110224,2011-02-23 20:55:00.0,0,1,nem-20101231.xml,1,,3.0366217646637056e+16,20100630.0,,
0001047469-11-002754,2809,AGNICO EAGLE MINES LTD,1040.0,CA,ON,TORONTO,M5C 2Y7,145 KING STREET EAST,SUITE 400,4169471212,CA,ON,TORONTO,M5C 2Y7,145 KING STREET EAST,SUITE 400,CA,ON,0.0,,,1-LAF,1,1231.0,20-F,20101231.0,2010.0,FY,20110328,2011-03-28 17:10:00.0,0,1,aem-20101231.xml,1,,,,,
0001104659-11-017950,756894,BARRICK GOLD CORP,1040.0,CA,ON,TORONTO ONTARIO CANA,M5J2S1,"BCE PLACE, CANADA TRUST TOWER",161 BAY STREET SUITE 3700,4163077470,CA,ON,ONTARIO M5J2S1,M5J2S1,"BCE PLACE, CANADA TRUST TOWER",P O BOX 212 TORONTO,,,0.0,BARRICK RESOURCES CORP,19860109.0,,0,1231.0,40-F,20101231.0,2010.0,FY,20110331,2011-03-31 15:55:00.0,1,1,abx-20101231.xml,1,,,,,
0001104659-11-018754,756894,BARRICK GOLD CORP,1040.0,CA,ON,TORONTO ONTARIO CANA,M5J2S1,"BCE PLACE, CANADA TRUST TOWER",161 BAY STREET SUITE 3700,4163077470,CA,ON,ONTARIO M5J2S1,M5J2S1,"BCE PLACE, CANADA TRUST TOWER",P O BOX 212 TORONTO,,,0.0,BARRICK RESOURCES CORP,19860109.0,,0,1231.0,40-F/A,20101231.0,2010.0,FY,20110405,2011-04-05 16:34:00.0,0,1,abx-20101231.xml,1,,,,,
0000950123-11-037416,1164727,NEWMONT MINING CORP /DE/,1040.0,US,CO,GREENWOOD VILLAGE,80111,6363 SOUTH FIDDLERS GREEN CIRCLE,,303-863-7414,US,CO,GREENWOOD VILLAGE,80111,6363 SOUTH FIDDLERS GREEN CIRCLE,,US,DE,841611629.0,DELTA HOLDCO CORP,20020109.0,1-LAF,1,1231.0,10-Q,20110331.0,2011.0,Q1,20110421,2011-04-20 20:30:00.0,0,1,nem-20110331.xml,1,,,,,
0001047469-11-004994,2809,AGNICO EAGLE MINES LTD,1040.0,CA,ON,TORONTO,M5C 2Y7,145 KING STREET EAST,SUITE 400,4169471212,CA,ON,TORONTO,M5C 2Y7,145 KING STREET EAST,SUITE 400,CA,ON,0.0,,,1-LAF,0,1231.0,6-K,20110331.0,2011.0,Q1,20110512,2011-05-12 09:23:00.0,0,1,aem-20110331.xml,1,,,,,
0001193125-24-036626,756894,BARRICK GOLD CORP,1040.0,CA,ON,TORONTO ONTARIO CANA,M5J2S1,"BCE PLACE, CANADA TRUST TOWER",161 BAY STREET SUITE 3700,4163077470,CA,ON,ONTARIO M5J2S1,M5J2S1,"BCE PLACE, CANADA TRUST TOWER",P O BOX 212 TORONTO,CA,BC,0.0,BARRICK RESOURCES CORP,19860109.0,,0,1231.0,6-K,20231231.0,2023.0,FY,20240214,2024-02-14 17:28:00.0,0,1,d647461d6k_htm.xml,1,,,,,
0001104659-24-026228,1164727,NEWMONT CORP /DE/,1040.0,US,CO,DENVER,80237,6900 E LAYTON AVE,SUITE 700,303-863-7414,US,CO,DENVER,80237,6900 E LAYTON AVE,SUITE 700,US,DE,841611629.0,NEWMONT GOLDCORP CORP /DE/,20190417.0,1-LAF,0,1231.0,8-K,20240131.0,,,20240222,2024-02-22 06:03:00.0,1,0,tm246653d1_8k_htm.xml,1,,,,,
0001104659-24-026544,1164727,NEWMONT CORP /DE/,1040.0,US,CO,DENVER,80237,6900 E LAYTON AVE,SUITE 700,303-863-7414,US,CO,DENVER,80237,6900 E LAYTON AVE,SUITE 700,US,DE,841611629.0,NEWMONT GOLDCORP CORP /DE/,20190417.0,1-LAF,0,1231.0,8-K/A,20230131.0,,,20240222,2024-02-22 16:16:00.0,0,0,tm246653d2_8ka_htm.xml,1,,,,,
0001164727-24-000006,1164727,NEWMONT CORP /DE/,1040.0,US,CO,DENVER,80237,6900 E LAYTON AVE,SUITE 700,303-863-7414,US,CO,DENVER,80237,6900 E LAYTON AVE,SUITE 700,US,DE,841611629.0,NEWMONT GOLDCORP CORP /DE/,20190417.0,1-LAF,0,1231.0,8-K,20240229.0,,,20240222,2024-02-22 07:01:00.0,1,0,nem-20240222_htm.xml,1,,,,,
0000886986-24-000003,886986,TECK RESOURCES LTD,1400.0,CA,BC,VANCOUVER,V6C 0B3,550 BURRARD ST,"SUITE 3300, BENTALL 5",604-699-4000,CA,BC,VANCOUVER,V6C 0B3,550 BURRARD ST,"SUITE 3300, BENTALL 5",CA,BC,0.0,TECK COMINCO LTD,19940623.0,,0,1231.0,40-F,20231231.0,2023.0,FY,20240223,2024-02-23 16:17:00.0,0,1,teck-20231231_htm.xml,1,,,,,
0001164727-24-000016,1164727,NEWMONT CORP /DE/,1040.0,US,CO,DENVER,80237,6900 E LAYTON AVE,SUITE 700,303-863-7414,US,CO,DENVER,80237,6900 E LAYTON AVE,SUITE 700,US,DE,841611629.0,NEWMONT GOLDCORP CORP /DE/,20190417.0,1-LAF,1,1231.0,10-K,20231231.0,2023.0,FY,20240229,2024-02-29 07:52:00.0,0,1,nem-20231231_htm.xml,1,,33878942644.0,20230630.0,,1.0
0001193125-24-055096,1725964,NUTRIEN LTD.,2870.0,CA,SK,SASKATOON,S7K 5R6,211 19TH STREET EAST,SUITE 1700,(306) 933-8500,CA,SK,SASKATOON,S7K 5R6,211 19TH STREET EAST,SUITE 1700,CA,,981400416.0,,,,0,1231.0,40-F,20231231.0,2023.0,FY,20240301,2024-03-01 11:09:00.0,0,1,d523730d40f_htm.xml,1,,,,,
0001104659-24-030616,1164727,NEWMONT CORP /DE/,1040.0,US,CO,DENVER,80237,6900 E LAYTON AVE,SUITE 700,303-863-7414,US,CO,DENVER,80237,6900 E LAYTON AVE,SUITE 700,US,DE,841611629.0,NEWMONT GOLDCORP CORP /DE/,20190417.0,1-LAF,0,1231.0,8-K,20240229.0,,,20240305,2024-03-04 19:13:00.0,0,0,tm247930d1_8k_htm.xml,1,,,,,
0001558370-24-002504,1456346,FRANCO NEVADA CORP,1040.0,CA,ON,TORONTO,M5L 1G9,"199 BAY STREET, SUITE 2000",COMMERCE COURT WEST,416-306-6317,CA,ON,TORONTO,M5L 1G9,"199 BAY STREET, SUITE 2000",COMMERCE COURT WEST,CA,,0.0,,,,0,1231.0,6-K,20231231.0,2023.0,FY,20240306,2024-03-05 17:47:00.0,0,1,fnv-20231231x6k_htm.xml,1,,,,,
0001104659-24-032016,1164727,NEWMONT CORP /DE/,1040.0,US,CO,DENVER,80237,6900 E LAYTON AVE,SUITE 700,303-863-7414,US,CO,DENVER,80237,6900 E LAYTON AVE,SUITE 700,US,DE,841611629.0,NEWMONT GOLDCORP CORP /DE/,20190417.0,1-LAF,0,1231.0,8-K,20240229.0,,,20240308,2024-03-07 20:24:00.0,0,0,tm248224d1_8k_htm.xml,1,,,,,
0001104659-24-033021,1164727,NEWMONT CORP /DE/,1040.0,US,CO,DENVER,80237,6900 E LAYTON AVE,SUITE 700,303-863-7414,US,CO,DENVER,80237,6900 E LAYTON AVE,SUITE 700,US,DE,841611629.0,NEWMONT GOLDCORP CORP /DE/,20190417.0,1-LAF,0,1231.0,DEF 14A,20240430.0,,,20240311,2024-03-11 16:32:00.0,0,0,tm242628d2_def14a_htm.xml,1,,,,,
0001193125-24-068583,756894,BARRICK GOLD CORP,1040.0,CA,ON,TORONTO ONTARIO CANA,M5J2S1,"BCE PLACE, CANADA TRUST TOWER",161 BAY STREET SUITE 3700,4163077470,CA,ON,ONTARIO M5J2S1,M5J2S1,"BCE PLACE, CANADA TRUST TOWER",P O BOX 212 TORONTO,CA,BC,0.0,BARRICK RESOURCES CORP,19860109.0,,0,1231.0,40-F,20231231.0,2023.0,FY,20240315,2024-03-15 07:32:00.0,0,1,d643214d40f_htm.xml,1,,,,,
0001558370-24-003443,1456346,FRANCO NEVADA CORP,1040.0,CA,ON,TORONTO,M5L 1G9,"199 BAY STREET, SUITE 2000",COMMERCE COURT WEST,416-306-6317,CA,ON,TORONTO,M5L 1G9,"199 BAY STREET, SUITE 2000",COMMERCE COURT WEST,CA,,0.0,,,,0,1231.0,40-F,20231231.0,2023.0,FY,20240315,2024-03-15 17:24:00.0,0,1,fnv-20231231x40f_htm.xml,1,,,,,
0001193125-24-075464,1009001,CAMECO CORP,1090.0,CA,SK,SASKATOON,S7M 1J3,2121 11TH ST W,,3069566200,CA,SK,SASKATOON,S7M 1J3,2121 11TH ST W.,,,,980113090.0,,,,0,1231.0,40-F,20231231.0,2023.0,FY,20240322,2024-03-22 17:23:00.0,0,1,d764353d40f_htm.xml,1,,,,,
0001104659-24-037982,2809,AGNICO EAGLE MINES LTD,1040.0,CA,ON,TORONTO,M5C 2Y7,145 KING STREET EAST,SUITE 400,4169471212,CA,ON,TORONTO,M5C 2Y7,145 KING STREET EAST,SUITE 400,CA,ON,0.0,,,,0,1231.0,40-F,20231231.0,2023.0,FY,20240325,2024-03-22 18:17:00.0,0,1,aem-20231231x40f_htm.xml,1,,,,,
0001104659-24-039723,701818,KINROSS GOLD CORP,1040.0,CA,ON,TORONTO,M5J 2V5,25 YORK STREET,17TH FLOOR,8013639152,CA,ON,TORONTO,M5J 2V5,25 YORK STREET,17TH FLOOR,,,650430083.0,PLEXUS RESOURCES CORP,19920703.0,,0,1231.0,40-F,20231231.0,2023.0,FY,20240327,2024-03-27 16:19:00.0,0,1,kgc-20231231x40f_htm.xml,1,,,,,
0001193125-24-080810,1323404,WHEATON PRECIOUS METALS CORP.,1040.0,CA,BC,VANCOUVER,V6E 0C3,SUITE 3500,1021 WEST HASTINGS STREEET,604 684 3123,CA,BC,VANCOUVER,V6E 0C3,SUITE 3500,1021 WEST HASTINGS STREEET,CA,ON,980459455.0,SILVER WHEATON CORP.,20050411.0,,0,1231.0,40-F,20231231.0,2023.0,FY,20240328,2024-03-28 16:57:00.0,0,1,d741247d40f_htm.xml,1,,,,,
0001164727-24-000025,1164727,NEWMONT CORP /DE/,1040.0,US,CO,DENVER,80237,6900 E LAYTON AVE,SUITE 700,303-863-7414,US,CO,DENVER,80237,6900 E LAYTON AVE,SUITE 700,US,DE,841611629.0,NEWMONT GOLDCORP CORP /DE/,20190417.0,1-LAF,0,1231.0,8-K,20240430.0,,,20240425,2024-04-25 07:01:00.0,0,0,nem-20240425_htm.xml,1,,,,,
0001104659-24-053061,1164727,NEWMONT CORP /DE/,1040.0,US,CO,DENVER,80237,6900 E LAYTON AVE,SUITE 700,303-863-7414,US,CO,DENVER,80237,6900 E LAYTON AVE,SUITE 700,US,DE,841611629.0,NEWMONT GOLDCORP CORP /DE/,20190417.0,1-LAF,0,1231.0,8-K,20240430.0,,,20240426,2024-04-26 17:00:00.0,0,0,tm2412783d1_8k_htm.xml,1,,,,,
0001164727-24-000031,1164727,NEWMONT CORP /DE/,1040.0,US,CO,DENVER,80237,6900 E LAYTON AVE,SUITE 700,303-863-7414,US,CO,DENVER,80237,6900 E LAYTON AVE,SUITE 700,US,DE,841611629.0,NEWMONT GOLDCORP CORP /DE/,20190417.0,1-LAF,0,1231.0,10-Q,20240331.0,2024.0,Q1,20240429,2024-04-29 08:03:00.0,0,1,nem-20240331_htm.xml,1,,,,,
0001104659-24-076031,1164727,NEWMONT CORP /DE/,1040.0,US,CO,DENVER,80237,6900 E LAYTON AVE,SUITE 700,303-863-7414,US,CO,DENVER,80237,6900 E LAYTON AVE,SUITE 700,US,DE,841611629.0,NEWMONT GOLDCORP CORP /DE/,20190417.0,1-LAF,0,1231.0,8-K,20240630.0,,,20240628,2024-06-28 08:05:00.0,0,0,tm2418469d1_8k_htm.xml,1,,,,,
0001164727-24-000035,1164727,NEWMONT CORP /DE/,1040.0,US,CO,DENVER,80237,6900 E LAYTON AVE,SUITE 700,303-863-7414,US,CO,DENVER,80237,6900 E LAYTON AVE,SUITE 700,US,DE,841611629.0,NEWMONT GOLDCORP CORP /DE/,20190417.0,1-LAF,0,1231.0,8-K,20240731.0,,,20240724,2024-07-24 16:05:00.0,0,0,nem-20240724_htm.xml,1,,,,,
0001164727-24-000039,1164727,NEWMONT CORP /DE/,1040.0,US,CO,DENVER,80237,6900 E LAYTON AVE,SUITE 700,303-863-7414,US,CO,DENVER,80237,6900 E LAYTON AVE,SUITE 700,US,DE,841611629.0,NEWMONT GOLDCORP CORP /DE/,20190417.0,1-LAF,0,1231.0,10-Q,20240630.0,2024.0,Q2,20240725,2024-07-25 16:04:00.0,0,1,nem-20240630_htm.xml,1,,,,,
0001104659-24-082823,1164727,NEWMONT CORP /DE/,1040.0,US,CO,DENVER,80237,6900 E LAYTON AVE,SUITE 700,303-863-7414,US,CO,DENVER,80237,6900 E LAYTON AVE,SUITE 700,US,DE,841611629.0,NEWMONT GOLDCORP CORP /DE/,20190417.0,1-LAF,0,1231.0,8-K,20240731.0,,,20240726,2024-07-26 06:35:00.0,0,0,tm2420066d1_8k_htm.xml,1,,,,,
0001193125-24-196105,1323404,WHEATON PRECIOUS METALS CORP.,1040.0,CA,BC,VANCOUVER,V6E 0C3,SUITE 3500,1021 WEST HASTINGS STREEET,604 684 3123,CA,BC,VANCOUVER,V6E 0C3,SUITE 3500,1021 WEST HASTINGS STREEET,CA,ON,980459455.0,SILVER WHEATON CORP.,20050411.0,,0,1231.0,6-K,20240630.0,2024.0,Q2,20240808,2024-08-07 18:22:00.0,0,1,d808400d6k_htm.xml,1,,,,,
0001193125-24-198723,756894,BARRICK GOLD CORP,1040.0,CA,ON,TORONTO ONTARIO CANA,M5J2S1,"BCE PLACE, CANADA TRUST TOWER",161 BAY STREET SUITE 3700,4163077470,CA,ON,ONTARIO M5J2S1,M5J2S1,"BCE PLACE, CANADA TRUST TOWER",P O BOX 212 TORONTO,CA,BC,0.0,BARRICK RESOURCES CORP,19860109.0,,0,1231.0,6-K,20240630.0,2024.0,Q2,20240812,2024-08-12 14:08:00.0,0,1,d876961d6k_htm.xml,1,,,,,
0001558370-24-012095,1456346,FRANCO NEVADA CORP,1040.0,CA,ON,TORONTO,M5L 1G9,"199 BAY STREET, SUITE 2000",COMMERCE COURT WEST,416-306-6317,CA,ON,TORONTO,M5L 1G9,"199 BAY STREET, SUITE 2000",COMMERCE COURT WEST,CA,,0.0,,,,0,1231.0,6-K,20240630.0,2024.0,Q2,20240814,2024-08-13 18:22:00.0,0,1,fnv-20240630x6k_htm.xml,1,,,,,
0001164727-24-000057,1164727,NEWMONT CORP /DE/,1040.0,US,CO,DENVER,80237,6900 E LAYTON AVE,SUITE 700,303-863-7414,US,CO,DENVER,80237,6900 E LAYTON AVE,SUITE 700,US,DE,841611629.0,NEWMONT GOLDCORP CORP /DE/,20190417.0,1-LAF,0,1231.0,8-K,20241031.0,,,20241023,2024-10-23 16:06:00.0,0,0,nem-20241023_htm.xml,1,,,,,
0001164727-24-000061,1164727,NEWMONT CORP /DE/,1040.0,US,CO,DENVER,80237,6900 E LAYTON AVE,SUITE 700,303-863-7414,US,CO,DENVER,80237,6900 E LAYTON AVE,SUITE 700,US,DE,841611629.0,NEWMONT GOLDCORP CORP /DE/,20190417.0,1-LAF,0,1231.0,10-Q,20240930.0,2024.0,Q3,20241024,2024-10-24 16:13:00.0,0,1,nem-20240930_htm.xml,1,,,,,
0001104659-24-120181,1164727,NEWMONT CORP /DE/,1040.0,US,CO,DENVER,80237,6900 E LAYTON AVE,SUITE 700,303-863-7414,US,CO,DENVER,80237,6900 E LAYTON AVE,SUITE 700,US,DE,841611629.0,NEWMONT GOLDCORP CORP /DE/,20190417.0,1-LAF,0,1231.0,8-K,20241130.0,,,20241118,2024-11-18 17:05:00.0,0,0,tm2428762d1_8k_htm.xml,1,,,,,
0001104659-25-013049,2809,AGNICO EAGLE MINES LTD,1040.0,CA,ON,TORONTO,M5C 2Y7,145 KING STREET EAST,SUITE 400,4169471212,CA,ON,TORONTO,M5C 2Y7,145 KING STREET EAST,SUITE 400,CA,ON,0.0,,,,0,1231.0,6-K,20241231.0,2024.0,FY,20250213,2025-02-13 17:30:00.0,0,1,aem-20241231x6k_htm.xml,1,,,,,
0001193125-25-025337,756894,BARRICK GOLD CORP,1040.0,CA,ON,TORONTO ONTARIO CANA,M5J2S1,"BCE PLACE, CANADA TRUST TOWER",161 BAY STREET SUITE 3700,4163077470,CA,ON,ONTARIO M5J2S1,M5J2S1,"BCE PLACE, CANADA TRUST TOWER",P O BOX 212 TORONTO,CA,BC,0.0,BARRICK RESOURCES CORP,19860109.0,,0,1231.0,6-K,20241231.0,2024.0,FY,20250213,2025-02-12 21:38:00.0,0,1,d853431d6k_htm.xml,1,,,,,
0000886986-25-000004,886986,TECK RESOURCES LTD,1400.0,CA,BC,VANCOUVER,V6C 0B3,550 BURRARD ST,"SUITE 3300, BENTALL 5",604-699-4000,CA,BC,VANCOUVER,V6C 0B3,550 BURRARD ST,"SUITE 3300, BENTALL 5",CA,BC,0.0,TECK COMINCO LTD,19940623.0,,0,1231.0,40-F,20241231.0,2024.0,FY,20250220,2025-02-20 15:47:00.0,0,1,teck-20241231_htm.xml,1,,,,,
0001164727-25-000008,1164727,NEWMONT CORP /DE/,1040.0,US,CO,DENVER,80237,6900 E LAYTON AVE,SUITE 700,303-863-7414,US,CO,DENVER,80237,6900 E LAYTON AVE,SUITE 700,US,DE,841611629.0,NEWMONT GOLDCORP CORP /DE/,20190417.0,1-LAF,0,1231.0,8-K,20250228.0,,,20250220,2025-02-20 16:02:00.0,0,0,nem-20250220_htm.xml,1,,,,,
0001164727-25-000011,1164727,NEWMONT CORP /DE/,1040.0,US,CO,DENVER,80237,6900 E LAYTON AVE,SUITE 700,303-863-7414,US,CO,DENVER,80237,6900 E LAYTON AVE,SUITE 700,US,DE,841611629.0,NEWMONT GOLDCORP CORP /DE/,20190417.0,1-LAF,1,1231.0,10-K,20241231.0,2024.0,FY,20250221,2025-02-20 20:21:00.0,0,1,nem-20241231_htm.xml,1,,48153562623.0,20240630.0,,1.0
0001104659-25-017551,2809,AGNICO EAGLE MINES LTD,1040.0,CA,ON,TORONTO,M5C 2Y7,145 KING STREET EAST,SUITE 400,4169471212,CA,ON,TORONTO,M5C 2Y7,145 KING STREET EAST,SUITE 400,CA,ON,0.0,,,,0,1231.0,40-F,20241231.0,2024.0,FY,20250227,2025-02-26 18:12:00.0,0,1,aem-20241231x40f_htm.xml,1,,,,,
0001193125-25-041502,1725964,NUTRIEN LTD.,2870.0,CA,SK,SASKATOON,S7K 5R6,211 19TH STREET EAST,SUITE 1700,(306) 933-8500,CA,SK,SASKATOON,S7K 5R6,211 19TH STREET EAST,SUITE 1700,CA,,981400416.0,,,,0,1231.0,40-F,20241231.0,2024.0,FY,20250228,2025-02-28 11:57:00.0,0,1,d795438d40f_htm.xml,1,,,,,
0001104659-20-001511,1164727,NEWMONT CORP /DE/,1040.0,US,CO,GREENWOOD VILLAGE,80111,6363 SOUTH FIDDLERS GREEN CIRCLE,,303-863-7414,US,CO,GREENWOOD VILLAGE,80111,6363 SOUTH FIDDLERS GREEN CIRCLE,,US,DE,841611629.0,NEWMONT GOLDCORP CORP /DE/,20190417.0,1-LAF,0,1231.0,8-K,20191231.0,,,20200106,2020-01-06 16:09:00.0,0,0,tm201258-1_8k_htm.xml,1,,,,,
0001157523-20-000234,1164727,NEWMONT CORP /DE/,1040.0,US,CO,GREENWOOD VILLAGE,80111,6363 SOUTH FIDDLERS GREEN CIRCLE,,303-863-7414,US,CO,GREENWOOD VILLAGE,80111,6363 SOUTH FIDDLERS GREEN CIRCLE,,US,DE,841611629.0,NEWMONT GOLDCORP CORP /DE/,20190417.0,1-LAF,0,1231.0,8-K,20200229.0,,,20200220,2020-02-20 06:57:00.0,0,0,a52176631_htm.xml,1,,,,,
0001193125-20-043247,756894,BARRICK GOLD CORP,1040.0,CA,ON,TORONTO ONTARIO CANA,M5J2S1,"BCE PLACE, CANADA TRUST TOWER",161 BAY STREET SUITE 3700,4163077470,CA,ON,ONTARIO M5J2S1,M5J2S1,"BCE PLACE, CANADA TRUST TOWER",P O BOX 212 TORONTO,CA,BC,0.0,BARRICK RESOURCES CORP,19860109.0,,0,1231.0,6-K,20191231.0,2019.0,FY,20200220,2020-02-20 15:12:00.0,0,1,abx-20191231.xml,1,,,,,
0001558370-20-001041,1164727,NEWMONT CORP /DE/,1040.0,US,CO,GREENWOOD VILLAGE,80111,6363 SOUTH FIDDLERS GREEN CIRCLE,,303-863-7414,US,CO,GREENWOOD VILLAGE,80111,6363 SOUTH FIDDLERS GREEN CIRCLE,,US,DE,841611629.0,NEWMONT GOLDCORP CORP /DE/,20190417.0,1-LAF,1,1231.0,10-K,20191231.0,2019.0,FY,20200220,2020-02-20 07:09:00.0,0,1,nem-20191231x10k047aaa_htm.xml,1,,31446331094.0,20190630.0,,
0000950142-20-000606,886986,TECK RESOURCES LTD,1400.0,CA,BC,VANCOUVER,V6C 0B3,550 BURRARD ST,"SUITE 3300, BENTALL 5",604-699-4000,CA,BC,VANCOUVER,V6C 0B3,550 BURRARD ST,"SUITE 3300, BENTALL 5",CA,BC,0.0,TECK COMINCO LTD,19940623.0,,0,1231.0,40-F,20191231.0,2019.0,FY,20200227,2020-02-26 21:09:00.0,0,1,teck-20191231.xml,1,,,,,
0001193125-20-055383,1725964,NUTRIEN LTD.,2870.0,CA,SK,SASKATOON,S7K 7G3,"SUITE 500, 122 - 1ST AVENUE SOUTH",,(306) 933-8500,CA,SK,SASKATOON,S7K 7G3,"SUITE 500, 122 - 1ST AVENUE SOUTH",,CA,,981400416.0,,,,0,1231.0,40-F,20191231.0,2019.0,FY,20200228,2020-02-28 12:47:00.0,0,1,ntr-20191231.xml,1,,,,,
0001104659-20-029017,1164727,NEWMONT CORP /DE/,1040.0,US,CO,GREENWOOD VILLAGE,80111,6363 SOUTH FIDDLERS GREEN CIRCLE,,303-863-7414,US,CO,GREENWOOD VILLAGE,80111,6363 SOUTH FIDDLERS GREEN CIRCLE,,US,DE,841611629.0,NEWMONT GOLDCORP CORP /DE/,20190417.0,1-LAF,0,1231.0,8-K,20200229.0,,,20200304,2020-03-04 12:17:00.0,0,0,tm209593d3_8k_htm.xml,1,,,,,
0001104659-20-030134,1164727,NEWMONT CORP /DE/,1040.0,US,CO,GREENWOOD VILLAGE,80111,6363 SOUTH FIDDLERS GREEN CIRCLE,,303-863-7414,US,CO,GREENWOOD VILLAGE,80111,6363 SOUTH FIDDLERS GREEN CIRCLE,,US,DE,841611629.0,NEWMONT GOLDCORP CORP /DE/,20190417.0,1-LAF,0,1231.0,8-K,20200229.0,,,20200306,2020-03-06 15:32:00.0,0,0,tm209593d5_8k_htm.xml,1,,,,,
0001558370-20-002239,1456346,FRANCO NEVADA CORP,1040.0,CA,ON,TORONTO,M5L 1G9,"199 BAY STREET, SUITE 2000",COMMERCE COURT WEST,416-306-6317,CA,ON,TORONTO,M5L 1G9,"199 BAY STREET, SUITE 2000",COMMERCE COURT WEST,CA,,0.0,,,,0,1231.0,6-K,20191231.0,2019.0,FY,20200309,2020-03-09 17:16:00.0,0,1,fnv-20191231.xml,1,,,,,
0001104659-20-035541,1164727,NEWMONT CORP /DE/,1040.0,US,CO,GREENWOOD VILLAGE,80111,6363 SOUTH FIDDLERS GREEN CIRCLE,,303-863-7414,US,CO,GREENWOOD VILLAGE,80111,6363 SOUTH FIDDLERS GREEN CIRCLE,,US,DE,841611629.0,NEWMONT GOLDCORP CORP /DE/,20190417.0,1-LAF,0,1231.0,8-K,20200331.0,,,20200319,2020-03-18 21:56:00.0,0,0,tm2012943-1_8k_htm.xml,1,,,,,
0001558370-20-002894,1456346,FRANCO NEVADA CORP,1040.0,CA,ON,TORONTO,M5L 1G9,"199 BAY STREET, SUITE 2000",COMMERCE COURT WEST,416-306-6317,CA,ON,TORONTO,M5L 1G9,"199 BAY STREET, SUITE 2000",COMMERCE COURT WEST,CA,,0.0,,,,0,1231.0,40-F,20191231.0,2019.0,FY,20200318,2020-03-18 16:47:00.0,0,1,fnv-20191231.xml,1,,,,,
0001193125-20-085600,756894,BARRICK GOLD CORP,1040.0,CA,ON,TORONTO ONTARIO CANA,M5J2S1,"BCE PLACE, CANADA TRUST TOWER",161 BAY STREET SUITE 3700,4163077470,CA,ON,ONTARIO M5J2S1,M5J2S1,"BCE PLACE, CANADA TRUST TOWER",P O BOX 212 TORONTO,CA,BC,0.0,BARRICK RESOURCES CORP,19860109.0,,0,1231.0,40-F,20191231.0,2019.0,FY,20200326,2020-03-25 19:50:00.0,0,1,abx-20191231.xml,1,,,,,
0001047469-20-001879,2809,AGNICO EAGLE MINES LTD,1040.0,CA,ON,TORONTO,M5C 2Y7,145 KING STREET EAST,SUITE 400,4169471212,CA,ON,TORONTO,M5C 2Y7,145 KING STREET EAST,SUITE 400,CA,ON,0.0,,,1-LAF,0,1231.0,40-F,20191231.0,2019.0,FY,20200327,2020-03-27 16:33:00.0,0,1,aem-20191231.xml,1,,,,,
0001193125-20-088317,1009001,CAMECO CORP,1090.0,CA,SK,SASKATOON,S7M 1J3,2121 11TH ST W,,3069566200,CA,SK,SASKATOON,S7M 1J3,2121 11TH ST W.,,,,980113090.0,,,2-ACC,0,1231.0,40-F,20191231.0,2019.0,FY,20200327,2020-03-27 14:02:00.0,0,1,ccj-20191231.xml,1,,,,,
0001104659-20-039814,701818,KINROSS GOLD CORP,1040.0,CA,ON,TORONTO,M5J 2V5,25 YORK STREET,17TH FLOOR,8013639152,CA,ON,TORONTO,M5J 2V5,25 YORK STREET,17TH FLOOR,,,650430083.0,PLEXUS RESOURCES CORP,19920703.0,,0,1231.0,40-F,20191231.0,2019.0,FY,20200330,2020-03-30 06:09:00.0,0,1,kgc-20191231.xml,1,,,,,
0001193125-20-091051,1323404,WHEATON PRECIOUS METALS CORP.,1040.0,CA,BC,VANCOUVER,V6E 0C3,SUITE 3500,1021 WEST HASTINGS STREEET,604 684 3123,CA,BC,VANCOUVER,V6E 0C3,SUITE 3500,1021 WEST HASTINGS STREEET,CA,ON,980459455.0,SILVER WHEATON CORP.,20050411.0,,0,1231.0,40-F,20191231.0,2019.0,FY,20200330,2020-03-30 17:01:00.0,0,1,wpm-20191231.xml,1,,,,,
0001104659-20-049371,1164727,NEWMONT CORP /DE/,1040.0,US,CO,GREENWOOD VILLAGE,80111,6363 SOUTH FIDDLERS GREEN CIRCLE,,303-863-7414,US,CO,GREENWOOD VILLAGE,80111,6363 SOUTH FIDDLERS GREEN CIRCLE,,US,DE,841611629.0,NEWMONT GOLDCORP CORP /DE/,20190417.0,1-LAF,0,1231.0,8-K,20200430.0,,,20200422,2020-04-21 20:35:00.0,0,0,tm2016567-1_8k_htm.xml,1,,,,,
0001157523-20-000647,1164727,NEWMONT CORP /DE/,1040.0,US,CO,GREENWOOD VILLAGE,80111,6363 SOUTH FIDDLERS GREEN CIRCLE,,303-863-7414,US,CO,GREENWOOD VILLAGE,80111,6363 SOUTH FIDDLERS GREEN CIRCLE,,US,DE,841611629.0,NEWMONT GOLDCORP CORP /DE/,20190417.0,1-LAF,0,1231.0,8-K,20200430.0,,,20200505,2020-05-05 06:31:00.0,0,0,a52214383_htm.xml,1,,,,,
0001164727-20-000132,1164727,NEWMONT CORP /DE/,1040.0,US,CO,GREENWOOD VILLAGE,80111,6363 SOUTH FIDDLERS GREEN CIRCLE,,303-863-7414,US,CO,GREENWOOD VILLAGE,80111,6363 SOUTH FIDDLERS GREEN CIRCLE,,US,DE,841611629.0,NEWMONT GOLDCORP CORP /DE/,20190417.0,1-LAF,0,1231.0,10-Q,20200331.0,2020.0,Q1,20200505,2020-05-05 06:40:00.0,0,1,nem-20200331_htm.xml,1,,,,,
0001157523-20-001062,1164727,NEWMONT CORP /DE/,1040.0,US,CO,GREENWOOD VILLAGE,80111,6363 SOUTH FIDDLERS GREEN CIRCLE,,303-863-7414,US,CO,GREENWOOD VILLAGE,80111,6363 SOUTH FIDDLERS GREEN CIRCLE,,US,DE,841611629.0,NEWMONT GOLDCORP CORP /DE/,20190417.0,1-LAF,0,1231.0,8-K,20200731.0,,,20200730,2020-07-30 06:31:00.0,0,0,a52258116_htm.xml,1,,,,,
0001164727-20-000178,1164727,NEWMONT CORP /DE/,1040.0,US,CO,GREENWOOD VILLAGE,80111,6363 SOUTH FIDDLERS GREEN CIRCLE,,303-863-7414,US,CO,GREENWOOD VILLAGE,80111,6363 SOUTH FIDDLERS GREEN CIRCLE,,US,DE,841611629.0,NEWMONT GOLDCORP CORP /DE/,20190417.0,1-LAF,0,1231.0,10-Q,20200630.0,2020.0,Q2,20200730,2020-07-30 06:38:00.0,0,1,nem-20200630_htm.xml,1,,,,,
0001558370-20-009431,1456346,FRANCO NEVADA CORP,1040.0,CA,ON,TORONTO,M5L 1G9,"199 BAY STREET, SUITE 2000",COMMERCE COURT WEST,416-306-6317,CA,ON,TORONTO,M5L 1G9,"199 BAY STREET, SUITE 2000",COMMERCE COURT WEST,CA,,0.0,,,,0,1231.0,6-K,20200630.0,2020.0,Q2,20200805,2020-08-05 17:18:00.0,0,1,fnv-20200630.xml,1,,,,,
0001193125-20-215351,756894,BARRICK GOLD CORP,1040.0,CA,ON,TORONTO ONTARIO CANA,M5J2S1,"BCE PLACE, CANADA TRUST TOWER",161 BAY STREET SUITE 3700,4163077470,CA,ON,ONTARIO M5J2S1,M5J2S1,"BCE PLACE, CANADA TRUST TOWER",P O BOX 212 TORONTO,CA,BC,0.0,BARRICK RESOURCES CORP,19860109.0,,0,1231.0,6-K,20200630.0,2020.0,Q2,20200811,2020-08-10 21:53:00.0,0,1,d46718d6k_htm.xml,1,,,,,
0001193125-20-217791,1323404,WHEATON PRECIOUS METALS CORP.,1040.0,CA,BC,VANCOUVER,V6E 0C3,SUITE 3500,1021 WEST HASTINGS STREEET,604 684 3123,CA,BC,VANCOUVER,V6E 0C3,SUITE 3500,1021 WEST HASTINGS STREEET,CA,ON,980459455.0,SILVER WHEATON CORP.,20050411.0,,0,1231.0,6-K,20200630.0,2020.0,Q2,20200812,2020-08-12 17:19:00.0,0,1,wpm-20200630.xml,1,,,,,
0001104659-20-102858,1164727,NEWMONT CORP /DE/,1040.0,US,CO,GREENWOOD VILLAGE,80111,6363 SOUTH FIDDLERS GREEN CIRCLE,,303-863-7414,US,CO,GREENWOOD VILLAGE,80111,6363 SOUTH FIDDLERS GREEN CIRCLE,,US,DE,841611629.0,NEWMONT GOLDCORP CORP /DE/,20190417.0,1-LAF,0,1231.0,8-K,20200831.0,,,20200908,2020-09-08 08:55:00.0,0,0,tm2030311d1_8k_htm.xml,1,,,,,
0001157523-20-001374,1164727,NEWMONT CORP /DE/,1040.0,US,CO,GREENWOOD VILLAGE,80111,6363 SOUTH FIDDLERS GREEN CIRCLE,,303-863-7414,US,CO,GREENWOOD VILLAGE,80111,6363 SOUTH FIDDLERS GREEN CIRCLE,,US,DE,841611629.0,NEWMONT GOLDCORP CORP /DE/,20190417.0,1-LAF,0,1231.0,8-K,20201031.0,,,20201029,2020-10-29 07:37:00.0,1,0,a52316426_htm.xml,1,,,,,
0001164727-20-000228,1164727,NEWMONT CORP /DE/,1040.0,US,CO,GREENWOOD VILLAGE,80111,6363 SOUTH FIDDLERS GREEN CIRCLE,,303-863-7414,US,CO,GREENWOOD VILLAGE,80111,6363 SOUTH FIDDLERS GREEN CIRCLE,,US,DE,841611629.0,NEWMONT GOLDCORP CORP /DE/,20190417.0,1-LAF,0,1231.0,10-Q,20200930.0,2020.0,Q3,20201029,2020-10-29 07:43:00.0,0,1,nem-20200930_htm.xml,1,,,,,
0001157523-21-000209,1164727,NEWMONT CORP /DE/,1040.0,US,CO,DENVER,80237,6900 E LAYTON AVE,SUITE 700,303-863-7414,US,CO,DENVER,80237,6900 E LAYTON AVE,SUITE 700,US,CO,841611629.0,NEWMONT GOLDCORP CORP /DE/,20190417.0,1-LAF,0,1231.0,8-K,20210228.0,,,20210218,2021-02-18 07:00:00.0,1,0,a52380917_htm.xml,1,,,,,
0001164727-21-000027,1164727,NEWMONT CORP /DE/,1040.0,US,CO,DENVER,80237,6900 E LAYTON AVE,SUITE 700,303-863-7414,US,CO,DENVER,80237,6900 E LAYTON AVE,SUITE 700,US,CO,841611629.0,NEWMONT GOLDCORP CORP /DE/,20190417.0,1-LAF,1,1231.0,10-K,20201231.0,2020.0,FY,20210218,2021-02-18 07:07:00.0,0,1,nem-20201231_htm.xml,1,,49521911826.0,20200630.0,,
0001193125-21-047949,756894,BARRICK GOLD CORP,1040.0,CA,ON,TORONTO ONTARIO CANA,M5J2S1,"BCE PLACE, CANADA TRUST TOWER",161 BAY STREET SUITE 3700,4163077470,CA,ON,ONTARIO M5J2S1,M5J2S1,"BCE PLACE, CANADA TRUST TOWER",P O BOX 212 TORONTO,CA,BC,0.0,BARRICK RESOURCES CORP,19860109.0,,0,1231.0,6-K,20201231.0,2020.0,FY,20210219,2021-02-18 18:21:00.0,0,1,d102208d6k_htm.xml,1,,,,,
0000886986-21-000007,886986,TECK RESOURCES LTD,1400.0,CA,BC,VANCOUVER,V6C 0B3,550 BURRARD ST,"SUITE 3300, BENTALL 5",604-699-4000,CA,BC,VANCOUVER,V6C 0B3,550 BURRARD ST,"SUITE 3300, BENTALL 5",CA,BC,0.0,TECK COMINCO LTD,19940623.0,,0,1231.0,40-F,20201231.0,2020.0,FY,20210223,2021-02-22 17:34:00.0,0,1,teck-20201231_d2_htm.xml,1,,,,,
0001193125-21-059301,1725964,NUTRIEN LTD.,2870.0,CA,SK,SASKATOON,S7K 7G3,"SUITE 500, 122 - 1ST AVENUE SOUTH",,(306) 933-8500,CA,SK,SASKATOON,S7K 7G3,"SUITE 500, 122 - 1ST AVENUE SOUTH",,CA,,981400416.0,,,,0,1231.0,40-F,20201231.0,2020.0,FY,20210226,2021-02-26 12:20:00.0,0,1,ntr-20201231.xml,1,,,,,
0001558370-21-002728,1456346,FRANCO NEVADA CORP,1040.0,CA,ON,TORONTO,M5L 1G9,"199 BAY STREET, SUITE 2000",COMMERCE COURT WEST,416-306-6317,CA,ON,TORONTO,M5L 1G9,"199 BAY STREET, SUITE 2000",COMMERCE COURT WEST,CA,,0.0,,,,0,1231.0,6-K,20201231.0,2020.0,FY,20210310,2021-03-10 17:19:00.0,0,1,fnv-20201231.xml,1,,,,,
0001558370-21-003216,1456346,FRANCO NEVADA CORP,1040.0,CA,ON,TORONTO,M5L 1G9,"199 BAY STREET, SUITE 2000",COMMERCE COURT WEST,416-306-6317,CA,ON,TORONTO,M5L 1G9,"199 BAY STREET, SUITE 2000",COMMERCE COURT WEST,CA,,0.0,,,,0,1231.0,40-F,20201231.0,2020.0,FY,20210318,2021-03-18 16:54:00.0,0,1,fnv-20201231.xml,1,,,,,
0001104659-21-039051,1164727,NEWMONT CORP /DE/,1040.0,US,CO,DENVER,80237,6900 E LAYTON AVE,SUITE 700,303-863-7414,US,CO,DENVER,80237,6900 E LAYTON AVE,SUITE 700,US,CO,841611629.0,NEWMONT GOLDCORP CORP /DE/,20190417.0,1-LAF,0,1231.0,8-K,20210331.0,,,20210319,2021-03-19 16:04:00.0,1,0,tm2110340d1_8k_htm.xml,1,,,,,
0001193125-21-086732,756894,BARRICK GOLD CORP,1040.0,CA,ON,TORONTO ONTARIO CANA,M5J2S1,"BCE PLACE, CANADA TRUST TOWER",161 BAY STREET SUITE 3700,4163077470,CA,ON,ONTARIO M5J2S1,M5J2S1,"BCE PLACE, CANADA TRUST TOWER",P O BOX 212 TORONTO,CA,BC,0.0,BARRICK RESOURCES CORP,19860109.0,,0,1231.0,40-F,20201231.0,2020.0,FY,20210319,2021-03-19 07:19:00.0,0,1,d109340d40f_htm.xml,1,,,,,
0001193125-21-087174,1009001,CAMECO CORP,1090.0,CA,SK,SASKATOON,S7M 1J3,2121 11TH ST W,,3069566200,CA,SK,SASKATOON,S7M 1J3,2121 11TH ST W.,,,,980113090.0,,,2-ACC,0,1231.0,40-F,20201231.0,2020.0,FY,20210319,2021-03-19 13:08:00.0,0,1,ccj-20201231.xml,1,,,,,
0001047469-21-000756,2809,AGNICO EAGLE MINES LTD,1040.0,CA,ON,TORONTO,M5C 2Y7,145 KING STREET EAST,SUITE 400,4169471212,CA,ON,TORONTO,M5C 2Y7,145 KING STREET EAST,SUITE 400,CA,ON,0.0,,,1-LAF,0,1231.0,40-F,20201231.0,2020.0,FY,20210326,2021-03-26 16:54:00.0,0,1,aem-20201231.xml,1,,,,,
0001104659-21-043926,701818,KINROSS GOLD CORP,1040.0,CA,ON,TORONTO,M5J 2V5,25 YORK STREET,17TH FLOOR,8013639152,CA,ON,TORONTO,M5J 2V5,25 YORK STREET,17TH FLOOR,,,650430083.0,PLEXUS RESOURCES CORP,19920703.0,,0,1231.0,40-F,20201231.0,2020.0,FY,20210330,2021-03-30 16:48:00.0,0,1,kgc-20201231.xml,1,,,,,
0001104659-21-044847,1164727,NEWMONT CORP /DE/,1040.0,US,CO,DENVER,80237,6900 E LAYTON AVE,SUITE 700,303-863-7414,US,CO,DENVER,80237,6900 E LAYTON AVE,SUITE 700,US,CO,841611629.0,NEWMONT GOLDCORP CORP /DE/,20190417.0,1-LAF,0,1231.0,8-K,20210331.0,,,20210331,2021-03-31 17:01:00.0,1,0,tm2111416d1_8k_htm.xml,1,,,,,
0001193125-21-102453,1323404,WHEATON PRECIOUS METALS CORP.,1040.0,CA,BC,VANCOUVER,V6E 0C3,SUITE 3500,1021 WEST HASTINGS STREEET,604 684 3123,CA,BC,VANCOUVER,V6E 0C3,SUITE 3500,1021 WEST HASTINGS STREEET,CA,ON,980459455.0,SILVER WHEATON CORP.,20050411.0,,0,1231.0,40-F,20201231.0,2020.0,FY,20210331,2021-03-31 17:00:00.0,0,1,wpm-20201231.xml,1,,,,,
0001104659-21-057659,1164727,NEWMONT CORP /DE/,1040.0,US,CO,DENVER,80237,6900 E LAYTON AVE,SUITE 700,303-863-7414,US,CO,DENVER,80237,6900 E LAYTON AVE,SUITE 700,US,CO,841611629.0,NEWMONT GOLDCORP CORP /DE/,20190417.0,1-LAF,0,1231.0,8-K,20210430.0,,,20210429,2021-04-29 16:30:00.0,1,0,tm2114567d1_8k_htm.xml,1,,,,,
0001157523-21-000532,1164727,NEWMONT CORP /DE/,1040.0,US,CO,DENVER,80237,6900 E LAYTON AVE,SUITE 700,303-863-7414,US,CO,DENVER,80237,6900 E LAYTON AVE,SUITE 700,US,CO,841611629.0,NEWMONT GOLDCORP CORP /DE/,20190417.0,1-LAF,0,1231.0,8-K,20210430.0,,,20210429,2021-04-29 07:00:00.0,1,0,a52420316_htm.xml,1,,,,,
0001164727-21-000114,1164727,NEWMONT CORP /DE/,1040.0,US,CO,DENVER,80237,6900 E LAYTON AVE,SUITE 700,303-863-7414,US,CO,DENVER,80237,6900 E LAYTON AVE,SUITE 700,US,CO,841611629.0,NEWMONT GOLDCORP CORP /DE/,20190417.0,1-LAF,0,1231.0,10-Q,20210331.0,2021.0,Q1,20210429,2021-04-29 07:04:00.0,0,1,nem-20210331_htm.xml,1,,,,,
0001157523-21-000900,1164727,NEWMONT CORP /DE/,1040.0,US,CO,DENVER,80237,6900 E LAYTON AVE,SUITE 700,303-863-7414,US,CO,DENVER,80237,6900 E LAYTON AVE,SUITE 700,US,CO,841611629.0,NEWMONT GOLDCORP CORP /DE/,20190417.0,1-LAF,0,1231.0,8-K,20210731.0,,,20210722,2021-07-22 07:01:00.0,1,0,a52463960_htm.xml,1,,,,,
0001164727-21-000194,1164727,NEWMONT CORP /DE/,1040.0,US,CO,DENVER,80237,6900 E LAYTON AVE,SUITE 700,303-863-7414,US,CO,DENVER,80237,6900 E LAYTON AVE,SUITE 700,US,CO,841611629.0,NEWMONT GOLDCORP CORP /DE/,20190417.0,1-LAF,0,1231.0,10-Q,20210630.0,2021.0,Q2,20210722,2021-07-22 07:06:00.0,0,1,nem-20210630_htm.xml,1,,,,,
0001193125-21-240554,756894,BARRICK GOLD CORP,1040.0,CA,ON,TORONTO ONTARIO CANA,M5J2S1,"BCE PLACE, CANADA TRUST TOWER",161 BAY STREET SUITE 3700,4163077470,CA,ON,ONTARIO M5J2S1,M5J2S1,"BCE PLACE, CANADA TRUST TOWER",P O BOX 212 TORONTO,CA,BC,0.0,BARRICK RESOURCES CORP,19860109.0,,0,1231.0,6-K,20210630.0,2021.0,Q2,20210809,2021-08-09 16:47:00.0,0,1,d181316d6k_htm.xml,1,,,,,
0001193125-21-245047,1323404,WHEATON PRECIOUS METALS CORP.,1040.0,CA,BC,VANCOUVER,V6E 0C3,SUITE 3500,1021 WEST HASTINGS STREEET,604 684 3123,CA,BC,VANCOUVER,V6E 0C3,SUITE 3500,1021 WEST HASTINGS STREEET,CA,ON,980459455.0,SILVER WHEATON CORP.,20050411.0,,0,1231.0,6-K,20210630.0,2021.0,Q2,20210813,2021-08-12 20:24:00.0,0,1,wpm-20210630.xml,1,,,,,
0001558370-21-011325,1456346,FRANCO NEVADA CORP,1040.0,CA,ON,TORONTO,M5L 1G9,"199 BAY STREET, SUITE 2000",COMMERCE COURT WEST,416-306-6317,CA,ON,TORONTO,M5L 1G9,"199 BAY STREET, SUITE 2000",COMMERCE COURT WEST,CA,,0.0,,,,0,1231.0,6-K,20210630.0,2021.0,Q2,20210811,2021-08-11 17:18:00.0,0,1,fnv-20210630x6k_htm.xml,1,,,,,
0001104659-21-142802,1164727,NEWMONT CORP /DE/,1040.0,US,CO,DENVER,80237,6900 E LAYTON AVE,SUITE 700,303-863-7414,US,CO,DENVER,80237,6900 E LAYTON AVE,SUITE 700,US,CO,841611629.0,NEWMONT GOLDCORP CORP /DE/,20190417.0,1-LAF,0,1231.0,8-K,20211130.0,,,20211123,2021-11-23 08:01:00.0,1,0,tm2133735d1_8k_htm.xml,1,,,,,
0001104659-21-146604,1164727,NEWMONT CORP /DE/,1040.0,US,CO,DENVER,80237,6900 E LAYTON AVE,SUITE 700,303-863-7414,US,CO,DENVER,80237,6900 E LAYTON AVE,SUITE 700,US,CO,841611629.0,NEWMONT GOLDCORP CORP /DE/,20190417.0,1-LAF,0,1231.0,8-K,20211130.0,,,20211206,2021-12-06 09:10:00.0,1,0,tm2133737d3_8k_htm.xml,1,,,,,
0001104659-21-146923,1164727,NEWMONT CORP /DE/,1040.0,US,CO,DENVER,80237,6900 E LAYTON AVE,SUITE 700,303-863-7414,US,CO,DENVER,80237,6900 E LAYTON AVE,SUITE 700,US,CO,841611629.0,NEWMONT GOLDCORP CORP /DE/,20190417.0,1-LAF,0,1231.0,8-K,20211130.0,,,20211207,2021-12-06 21:28:00.0,1,0,tm2133737d4_8k_htm.xml,1,,,,,
0001104659-21-152155,1164727,NEWMONT CORP /DE/,1040.0,US,CO,DENVER,80237,6900 E LAYTON AVE,SUITE 700,303-863-7414,US,CO,DENVER,80237,6900 E LAYTON AVE,SUITE 700,US,CO,841611629.0,NEWMONT GOLDCORP CORP /DE/,20190417.0,1-LAF,0,1231.0,8-K,20211231.0,,,20211221,2021-12-21 16:01:00.0,1,0,tm2135846d1_8k_htm.xml,1,,,,,
0001157523-21-001269,1164727,NEWMONT CORP /DE/,1040.0,US,CO,DENVER,80237,6900 E LAYTON AVE,SUITE 700,303-863-7414,US,CO,DENVER,80237,6900 E LAYTON AVE,SUITE 700,US,CO,841611629.0,NEWMONT GOLDCORP CORP /DE/,20190417.0,1-LAF,0,1231.0,8-K,20211031.0,,,20211028,2021-10-28 07:02:00.0,1,0,a52516925_htm.xml,1,,,,,
0001164727-21-000235,1164727,NEWMONT CORP /DE/,1040.0,US,CO,DENVER,80237,6900 E LAYTON AVE,SUITE 700,303-863-7414,US,CO,DENVER,80237,6900 E LAYTON AVE,SUITE 700,US,CO,841611629.0,NEWMONT GOLDCORP CORP /DE/,20190417.0,1-LAF,0,1231.0,10-Q,20210930.0,2021.0,Q3,20211028,2021-10-28 07:07:00.0,0,1,nem-20210930_htm.xml,1,,,,,
0000886986-22-000007,886986,TECK RESOURCES LTD,1400.0,CA,BC,VANCOUVER,V6C 0B3,550 BURRARD ST,"SUITE 3300, BENTALL 5",604-699-4000,CA,BC,VANCOUVER,V6C 0B3,550 BURRARD ST,"SUITE 3300, BENTALL 5",CA,BC,0.0,TECK COMINCO LTD,19940623.0,,0,1231.0,40-F,20211231.0,2021.0,FY,20220228,2022-02-25 18:00:00.0,0,1,teck-20211231_htm.xml,1,,,,,
0001104659-22-037577,2809,AGNICO EAGLE MINES LTD,1040.0,CA,ON,TORONTO,M5C 2Y7,145 KING STREET EAST,SUITE 400,4169471212,CA,ON,TORONTO,M5C 2Y7,145 KING STREET EAST,SUITE 400,CA,ON,0.0,,,1-LAF,0,1231.0,40-F,20211231.0,2021.0,FY,20220325,2022-03-24 17:38:00.0,0,1,aem-20211231x40f_htm.xml,1,,,,,
0001104659-22-041156,701818,KINROSS GOLD CORP,1040.0,CA,ON,TORONTO,M5J 2V5,25 YORK STREET,17TH FLOOR,8013639152,CA,ON,TORONTO,M5J 2V5,25 YORK STREET,17TH FLOOR,,,650430083.0,PLEXUS RESOURCES CORP,19920703.0,,0,1231.0,40-F,20211231.0,2021.0,FY,20220331,2022-03-31 17:16:00.0,0,1,kgc-20211231x40f_htm.xml,1,,,,,
0001157523-22-000249,1164727,NEWMONT CORP /DE/,1040.0,US,CO,DENVER,80237,6900 E LAYTON AVE,SUITE 700,303-863-7414,US,CO,DENVER,80237,6900 E LAYTON AVE,SUITE 700,US,CO,841611629.0,NEWMONT GOLDCORP CORP /DE/,20190417.0,1-LAF,0,1231.0,8-K,20220228.0,,,20220224,2022-02-24 07:01:00.0,1,0,a52584477_htm.xml,1,,,,,
0001164727-22-000007,1164727,NEWMONT CORP /DE/,1040.0,US,CO,DENVER,80237,6900 E LAYTON AVE,SUITE 700,303-863-7414,US,CO,DENVER,80237,6900 E LAYTON AVE,SUITE 700,US,CO,841611629.0,NEWMONT GOLDCORP CORP /DE/,20190417.0,1-LAF,1,1231.0,10-K,20211231.0,2021.0,FY,20220224,2022-02-24 07:06:00.0,0,1,nem-20211231_htm.xml,1,,50629300966.0,20210630.0,,1.0
0001193125-22-044545,756894,BARRICK GOLD CORP,1040.0,CA,ON,TORONTO ONTARIO CANA,M5J2S1,"BCE PLACE, CANADA TRUST TOWER",161 BAY STREET SUITE 3700,4163077470,CA,ON,ONTARIO M5J2S1,M5J2S1,"BCE PLACE, CANADA TRUST TOWER",P O BOX 212 TORONTO,CA,BC,0.0,BARRICK RESOURCES CORP,19860109.0,,0,1231.0,6-K,20211231.0,2021.0,FY,20220217,2022-02-16 18:33:00.0,0,1,d191140d6k_htm.xml,1,,,,,
0001193125-22-053904,1725964,NUTRIEN LTD.,2870.0,CA,SK,SASKATOON,S7K 5R6,211 19TH STREET EAST,SUITE 1700,(306) 933-8500,CA,SK,SASKATOON,S7K 5R6,211 19TH STREET EAST,SUITE 1700,CA,,981400416.0,,,,0,1231.0,40-F,20211231.0,2021.0,FY,20220225,2022-02-25 12:30:00.0,0,1,d219334d40f_htm.xml,1,,,,,
0001193125-22-078905,756894,BARRICK GOLD CORP,1040.0,CA,ON,TORONTO ONTARIO CANA,M5J2S1,"BCE PLACE, CANADA TRUST TOWER",161 BAY STREET SUITE 3700,4163077470,CA,ON,ONTARIO M5J2S1,M5J2S1,"BCE PLACE, CANADA TRUST TOWER",P O BOX 212 TORONTO,CA,BC,0.0,BARRICK RESOURCES CORP,19860109.0,,0,1231.0,40-F,20211231.0,2021.0,FY,20220318,2022-03-18 07:15:00.0,0,1,d180315d40f_htm.xml,1,,,,,
0001193125-22-081448,1009001,CAMECO CORP,1090.0,CA,SK,SASKATOON,S7M 1J3,2121 11TH ST W,,3069566200,CA,SK,SASKATOON,S7M 1J3,2121 11TH ST W.,,,,980113090.0,,,,0,1231.0,40-F,20211231.0,2021.0,FY,20220322,2022-03-22 14:05:00.0,0,1,d328590d40f_htm.xml,1,,,,,
0001193125-22-091967,1323404,WHEATON PRECIOUS METALS CORP.,1040.0,CA,BC,VANCOUVER,V6E 0C3,SUITE 3500,1021 WEST HASTINGS STREEET,604 684 3123,CA,BC,VANCOUVER,V6E 0C3,SUITE 3500,1021 WEST HASTINGS STREEET,CA,ON,980459455.0,SILVER WHEATON CORP.,20050411.0,,0,1231.0,40-F,20211231.0,2021.0,FY,20220331,2022-03-31 16:52:00.0,0,1,d639516d40f_htm.xml,1,,,,,
0001558370-22-003161,1456346,FRANCO NEVADA CORP,1040.0,CA,ON,TORONTO,M5L 1G9,"199 BAY STREET, SUITE 2000",COMMERCE COURT WEST,416-306-6317,CA,ON,TORONTO,M5L 1G9,"199 BAY STREET, SUITE 2000",COMMERCE COURT WEST,CA,,0.0,,,,0,1231.0,6-K,20211231.0,2021.0,FY,20220309,2022-03-09 17:17:00.0,0,1,fnv-20211231x6k_htm.xml,1,,,,,
0001558370-22-003864,1456346,FRANCO NEVADA CORP,1040.0,CA,ON,TORONTO,M5L 1G9,"199 BAY STREET, SUITE 2000",COMMERCE COURT WEST,416-306-6317,CA,ON,TORONTO,M5L 1G9,"199 BAY STREET, SUITE 2000",COMMERCE COURT WEST,CA,,0.0,,,,0,1231.0,40-F,20211231.0,2021.0,FY,20220317,2022-03-17 16:48:00.0,0,1,fnv-20211231x40f_htm.xml,1,,,,,
0001104659-22-048961,1164727,NEWMONT CORP /DE/,1040.0,US,CO,DENVER,80237,6900 E LAYTON AVE,SUITE 700,303-863-7414,US,CO,DENVER,80237,6900 E LAYTON AVE,SUITE 700,US,CO,841611629.0,NEWMONT GOLDCORP CORP /DE/,20190417.0,1-LAF,0,1231.0,8-K,20220430.0,,,20220422,2022-04-22 16:15:00.0,1,0,tm2213281d1_8k_htm.xml,1,,,,,
0001157523-22-000461,1164727,NEWMONT CORP /DE/,1040.0,US,CO,DENVER,80237,6900 E LAYTON AVE,SUITE 700,303-863-7414,US,CO,DENVER,80237,6900 E LAYTON AVE,SUITE 700,US,CO,841611629.0,NEWMONT GOLDCORP CORP /DE/,20190417.0,1-LAF,0,1231.0,8-K,20220430.0,,,20220422,2022-04-22 07:01:00.0,1,0,a52693640_htm.xml,1,,,,,
0001164727-22-000017,1164727,NEWMONT CORP /DE/,1040.0,US,CO,DENVER,80237,6900 E LAYTON AVE,SUITE 700,303-863-7414,US,CO,DENVER,80237,6900 E LAYTON AVE,SUITE 700,US,CO,841611629.0,NEWMONT GOLDCORP CORP /DE/,20190417.0,1-LAF,0,1231.0,10-Q,20220331.0,2022.0,Q1,20220422,2022-04-22 07:03:00.0,0,1,nem-20220331_htm.xml,1,,,,,
0001104659-22-092007,1164727,NEWMONT CORP /DE/,1040.0,US,CO,DENVER,80237,6900 E LAYTON AVE,SUITE 700,303-863-7414,US,CO,DENVER,80237,6900 E LAYTON AVE,SUITE 700,US,CO,841611629.0,NEWMONT GOLDCORP CORP /DE/,20190417.0,1-LAF,0,1231.0,8-K,20220731.0,,,20220817,2022-08-17 07:42:00.0,1,0,tm2223544d1_8k_htm.xml,1,,,,,
0001104659-22-103707,1164727,NEWMONT CORP /DE/,1040.0,US,CO,DENVER,80237,6900 E LAYTON AVE,SUITE 700,303-863-7414,US,CO,DENVER,80237,6900 E LAYTON AVE,SUITE 700,US,CO,841611629.0,NEWMONT GOLDCORP CORP /DE/,20190417.0,1-LAF,0,1231.0,8-K,20220930.0,,,20220928,2022-09-28 16:05:00.0,1,0,tm2226842d1_8k_htm.xml,1,,,,,
0001157523-22-000888,1164727,NEWMONT CORP /DE/,1040.0,US,CO,DENVER,80237,6900 E LAYTON AVE,SUITE 700,303-863-7414,US,CO,DENVER,80237,6900 E LAYTON AVE,SUITE 700,US,CO,841611629.0,NEWMONT GOLDCORP CORP /DE/,20190417.0,1-LAF,0,1231.0,8-K,20220731.0,,,20220725,2022-07-25 07:01:00.0,1,0,a52789249_htm.xml,1,,,,,
0001164727-22-000024,1164727,NEWMONT CORP /DE/,1040.0,US,CO,DENVER,80237,6900 E LAYTON AVE,SUITE 700,303-863-7414,US,CO,DENVER,80237,6900 E LAYTON AVE,SUITE 700,US,CO,841611629.0,NEWMONT GOLDCORP CORP /DE/,20190417.0,1-LAF,0,1231.0,10-Q,20220630.0,2022.0,Q2,20220725,2022-07-25 07:02:00.0,0,1,nem-20220630_htm.xml,1,,,,,
0001164727-22-000028,1164727,NEWMONT CORP /DE/,1040.0,US,CO,DENVER,80237,6900 E LAYTON AVE,SUITE 700,303-863-7414,US,CO,DENVER,80237,6900 E LAYTON AVE,SUITE 700,US,CO,841611629.0,NEWMONT GOLDCORP CORP /DE/,20190417.0,1-LAF,1,1231.0,10-K/A,20211231.0,2021.0,FY,20220728,2022-07-28 17:19:00.0,0,0,nem-20211231_htm.xml,1,,50629300966.0,20210630.0,,1.0
0001193125-22-214948,756894,BARRICK GOLD CORP,1040.0,CA,ON,TORONTO ONTARIO CANA,M5J2S1,"BCE PLACE, CANADA TRUST TOWER",161 BAY STREET SUITE 3700,4163077470,CA,ON,ONTARIO M5J2S1,M5J2S1,"BCE PLACE, CANADA TRUST TOWER",P O BOX 212 TORONTO,CA,BC,0.0,BARRICK RESOURCES CORP,19860109.0,,0,1231.0,6-K,20220630.0,2022.0,Q2,20220808,2022-08-08 16:47:00.0,0,1,d368220d6k_htm.xml,1,,,,,
0001193125-22-218755,1323404,WHEATON PRECIOUS METALS CORP.,1040.0,CA,BC,VANCOUVER,V6E 0C3,SUITE 3500,1021 WEST HASTINGS STREEET,604 684 3123,CA,BC,VANCOUVER,V6E 0C3,SUITE 3500,1021 WEST HASTINGS STREEET,CA,ON,980459455.0,SILVER WHEATON CORP.,20050411.0,,0,1231.0,6-K,20220630.0,2022.0,Q2,20220812,2022-08-11 17:51:00.0,0,1,d375173d6k_htm.xml,1,,,,,
0001558370-22-013097,1456346,FRANCO NEVADA CORP,1040.0,CA,ON,TORONTO,M5L 1G9,"199 BAY STREET, SUITE 2000",COMMERCE COURT WEST,416-306-6317,CA,ON,TORONTO,M5L 1G9,"199 BAY STREET, SUITE 2000",COMMERCE COURT WEST,CA,,0.0,,,,0,1231.0,6-K,20220630.0,2022.0,Q2,20220810,2022-08-10 17:12:00.0,0,1,fnv-20220630x6k_htm.xml,1,,,,,
0001157523-22-001452,1164727,NEWMONT CORP /DE/,1040.0,US,CO,DENVER,80237,6900 E LAYTON AVE,SUITE 700,303-863-7414,US,CO,DENVER,80237,6900 E LAYTON AVE,SUITE 700,US,CO,841611629.0,NEWMONT GOLDCORP CORP /DE/,20190417.0,1-LAF,0,1231.0,8-K,20221031.0,,,20221101,2022-11-01 07:04:00.0,1,0,a52955822_htm.xml,1,,,,,
0001164727-22-000035,1164727,NEWMONT CORP /DE/,1040.0,US,CO,DENVER,80237,6900 E LAYTON AVE,SUITE 700,303-863-7414,US,CO,DENVER,80237,6900 E LAYTON AVE,SUITE 700,US,CO,841611629.0,NEWMONT GOLDCORP CORP /DE/,20190417.0,1-LAF,0,1231.0,10-Q,20220930.0,2022.0,Q3,20221101,2022-11-01 07:07:00.0,0,1,nem-20220930_htm.xml,1,,,,,
0000886986-23-000008,886986,TECK RESOURCES LTD,1400.0,CA,BC,VANCOUVER,V6C 0B3,550 BURRARD ST,"SUITE 3300, BENTALL 5",604-699-4000,CA,BC,VANCOUVER,V6C 0B3,550 BURRARD ST,"SUITE 3300, BENTALL 5",CA,BC,0.0,TECK COMINCO LTD,19940623.0,,0,1231.0,40-F,20221231.0,2022.0,FY,20230221,2023-02-21 16:21:00.0,0,1,teck-20221231_htm.xml,1,,,,,
0001104659-23-004649,1164727,NEWMONT CORP /DE/,1040.0,US,CO,DENVER,80237,6900 E LAYTON AVE,SUITE 700,303-863-7414,US,CO,DENVER,80237,6900 E LAYTON AVE,SUITE 700,US,CO,841611629.0,NEWMONT GOLDCORP CORP /DE/,20190417.0,1-LAF,0,1231.0,8-K,20230131.0,,,20230118,2023-01-18 17:16:00.0,1,0,tm233709d1_8k_htm.xml,1,,,,,
0001104659-23-011282,1164727,NEWMONT CORP /DE/,1040.0,US,CO,DENVER,80237,6900 E LAYTON AVE,SUITE 700,303-863-7414,US,CO,DENVER,80237,6900 E LAYTON AVE,SUITE 700,US,CO,841611629.0,NEWMONT GOLDCORP CORP /DE/,20190417.0,1-LAF,0,1231.0,8-K,20230131.0,,,20230206,2023-02-06 17:22:00.0,1,0,tm235610d1_8k_htm.xml,1,,,,,
0001104659-23-022143,1164727,NEWMONT CORP /DE/,1040.0,US,CO,DENVER,80237,6900 E LAYTON AVE,SUITE 700,303-863-7414,US,CO,DENVER,80237,6900 E LAYTON AVE,SUITE 700,US,CO,841611629.0,NEWMONT GOLDCORP CORP /DE/,20190417.0,1-LAF,0,1231.0,8-K,20230131.0,,,20230215,2023-02-15 06:01:00.0,1,0,tm235610d4_8k_htm.xml,1,,,,,
0001104659-23-024902,1164727,NEWMONT CORP /DE/,1040.0,US,CO,DENVER,80237,6900 E LAYTON AVE,SUITE 700,303-863-7414,US,CO,DENVER,80237,6900 E LAYTON AVE,SUITE 700,US,CO,841611629.0,NEWMONT GOLDCORP CORP /DE/,20190417.0,1-LAF,0,1231.0,8-K,20230228.0,,,20230224,2023-02-23 21:30:00.0,1,0,tm235610d7_8k_htm.xml,1,,,,,
0001104659-23-030754,1164727,NEWMONT CORP /DE/,1040.0,US,CO,DENVER,80237,6900 E LAYTON AVE,SUITE 700,303-863-7414,US,CO,DENVER,80237,6900 E LAYTON AVE,SUITE 700,US,CO,841611629.0,NEWMONT GOLDCORP CORP /DE/,20190417.0,1-LAF,0,1231.0,DEF 14A,,,,20230310,2023-03-09 21:42:00.0,0,0,tm2231936d4_def14a_htm.xml,1,,,,,
0001104659-23-037010,2809,AGNICO EAGLE MINES LTD,1040.0,CA,ON,TORONTO,M5C 2Y7,145 KING STREET EAST,SUITE 400,4169471212,CA,ON,TORONTO,M5C 2Y7,145 KING STREET EAST,SUITE 400,CA,ON,0.0,,,,0,1231.0,40-F,20221231.0,2022.0,FY,20230327,2023-03-27 12:42:00.0,0,1,aem-20221231x40f_htm.xml,1,,,,,
0001104659-23-040149,701818,KINROSS GOLD CORP,1040.0,CA,ON,TORONTO,M5J 2V5,25 YORK STREET,17TH FLOOR,8013639152,CA,ON,TORONTO,M5J 2V5,25 YORK STREET,17TH FLOOR,,,650430083.0,PLEXUS RESOURCES CORP,19920703.0,,0,1231.0,40-F,20221231.0,2022.0,FY,20230331,2023-03-31 16:03:00.0,0,1,kgc-20221231x40f_htm.xml,1,,,,,
0001157523-23-000340,1164727,NEWMONT CORP /DE/,1040.0,US,CO,DENVER,80237,6900 E LAYTON AVE,SUITE 700,303-863-7414,US,CO,DENVER,80237,6900 E LAYTON AVE,SUITE 700,US,CO,841611629.0,NEWMONT GOLDCORP CORP /DE/,20190417.0,1-LAF,0,1231.0,8-K,20230228.0,,,20230223,2023-02-23 07:01:00.0,1,0,a53340839_htm.xml,1,,,,,
0001164727-23-000011,1164727,NEWMONT CORP /DE/,1040.0,US,CO,DENVER,80237,6900 E LAYTON AVE,SUITE 700,303-863-7414,US,CO,DENVER,80237,6900 E LAYTON AVE,SUITE 700,US,CO,841611629.0,NEWMONT GOLDCORP CORP /DE/,20190417.0,1-LAF,1,1231.0,10-K,20221231.0,2022.0,FY,20230223,2023-02-23 07:12:00.0,0,1,nem-20221231_htm.xml,1,,47327306028.0,20220630.0,,1.0
0001193125-23-040263,756894,BARRICK GOLD CORP,1040.0,CA,ON,TORONTO ONTARIO CANA,M5J2S1,"BCE PLACE, CANADA TRUST TOWER",161 BAY STREET SUITE 3700,4163077470,CA,ON,ONTARIO M5J2S1,M5J2S1,"BCE PLACE, CANADA TRUST TOWER",P O BOX 212 TORONTO,CA,BC,0.0,BARRICK RESOURCES CORP,19860109.0,,0,1231.0,6-K,20221231.0,2022.0,FY,20230215,2023-02-15 16:40:00.0,0,1,d441831d6k_htm.xml,1,,,,,
0001193125-23-048055,1725964,NUTRIEN LTD.,2870.0,CA,SK,SASKATOON,S7K 5R6,211 19TH STREET EAST,SUITE 1700,(306) 933-8500,CA,SK,SASKATOON,S7K 5R6,211 19TH STREET EAST,SUITE 1700,CA,,981400416.0,,,,0,1231.0,40-F,20221231.0,2022.0,FY,20230224,2023-02-24 10:56:00.0,0,1,d411297d40f_htm.xml,1,,,,,
0001193125-23-073212,756894,BARRICK GOLD CORP,1040.0,CA,ON,TORONTO ONTARIO CANA,M5J2S1,"BCE PLACE, CANADA TRUST TOWER",161 BAY STREET SUITE 3700,4163077470,CA,ON,ONTARIO M5J2S1,M5J2S1,"BCE PLACE, CANADA TRUST TOWER",P O BOX 212 TORONTO,CA,BC,0.0,BARRICK RESOURCES CORP,19860109.0,,0,1231.0,40-F,20221231.0,2022.0,FY,20230317,2023-03-17 07:39:00.0,0,1,d428754d40f_htm.xml,1,,,,,
0001193125-23-083565,1009001,CAMECO CORP,1090.0,CA,SK,SASKATOON,S7M 1J3,2121 11TH ST W,,3069566200,CA,SK,SASKATOON,S7M 1J3,2121 11TH ST W.,,,,980113090.0,,,,0,1231.0,40-F,20221231.0,2022.0,FY,20230329,2023-03-29 15:22:00.0,0,1,d381976d40f_htm.xml,1,,,,,
0001193125-23-088220,1323404,WHEATON PRECIOUS METALS CORP.,1040.0,CA,BC,VANCOUVER,V6E 0C3,SUITE 3500,1021 WEST HASTINGS STREEET,604 684 3123,CA,BC,VANCOUVER,V6E 0C3,SUITE 3500,1021 WEST HASTINGS STREEET,CA,ON,980459455.0,SILVER WHEATON CORP.,20050411.0,,0,1231.0,40-F,20221231.0,2022.0,FY,20230331,2023-03-31 16:45:00.0,0,1,d261928d40f_htm.xml,1,,,,,
0001558370-23-003927,1456346,FRANCO NEVADA CORP,1040.0,CA,ON,TORONTO,M5L 1G9,"199 BAY STREET, SUITE 2000",COMMERCE COURT WEST,416-306-6317,CA,ON,TORONTO,M5L 1G9,"199 BAY STREET, SUITE 2000",COMMERCE COURT WEST,CA,,0.0,,,,0,1231.0,6-K,20221231.0,2022.0,FY,20230315,2023-03-15 17:25:00.0,0,1,fnv-20221231x6k_htm.xml,1,,,,,
0001558370-23-004112,1456346,FRANCO NEVADA CORP,1040.0,CA,ON,TORONTO,M5L 1G9,"199 BAY STREET, SUITE 2000",COMMERCE COURT WEST,416-306-6317,CA,ON,TORONTO,M5L 1G9,"199 BAY STREET, SUITE 2000",COMMERCE COURT WEST,CA,,0.0,,,,0,1231.0,40-F,20221231.0,2022.0,FY,20230317,2023-03-17 16:19:00.0,0,1,fnv-20221231x40f_htm.xml,1,,,,,
0001104659-23-044048,1164727,NEWMONT CORP /DE/,1040.0,US,CO,DENVER,80237,6900 E LAYTON AVE,SUITE 700,303-863-7414,US,CO,DENVER,80237,6900 E LAYTON AVE,SUITE 700,US,CO,841611629.0,NEWMONT GOLDCORP CORP /DE/,20190417.0,1-LAF,0,1231.0,8-K,20230331.0,,,20230411,2023-04-11 16:21:00.0,1,0,tm235610d9_8k_htm.xml,1,,,,,
0001104659-23-051471,1164727,NEWMONT CORP /DE/,1040.0,US,CO,DENVER,80237,6900 E LAYTON AVE,SUITE 700,303-863-7414,US,CO,DENVER,80237,6900 E LAYTON AVE,SUITE 700,US,CO,841611629.0,NEWMONT GOLDCORP CORP /DE/,20190417.0,1-LAF,0,1231.0,8-K,20230430.0,,,20230427,2023-04-27 17:10:00.0,1,0,tm2313993d1_8k_htm.xml,1,,,,,
0001104659-23-051845,1164727,NEWMONT CORP /DE/,1040.0,US,CO,DENVER,80237,6900 E LAYTON AVE,SUITE 700,303-863-7414,US,CO,DENVER,80237,6900 E LAYTON AVE,SUITE 700,US,CO,841611629.0,NEWMONT GOLDCORP CORP /DE/,20190417.0,1-LAF,0,1231.0,8-K,20230430.0,,,20230428,2023-04-27 21:56:00.0,1,0,tm235610d11_8k_htm.xml,1,,,,,
0001104659-23-060865,1164727,NEWMONT CORP /DE/,1040.0,US,CO,DENVER,80237,6900 E LAYTON AVE,SUITE 700,303-863-7414,US,CO,DENVER,80237,6900 E LAYTON AVE,SUITE 700,US,CO,841611629.0,NEWMONT GOLDCORP CORP /DE/,20190417.0,1-LAF,0,1231.0,8-K,20230430.0,,,20230515,2023-05-15 16:44:00.0,1,0,tm2315741d1_8k_htm.xml,1,,,,,
0001104659-23-061076,1164727,NEWMONT CORP /DE/,1040.0,US,CO,DENVER,80237,6900 E LAYTON AVE,SUITE 700,303-863-7414,US,CO,DENVER,80237,6900 E LAYTON AVE,SUITE 700,US,CO,841611629.0,NEWMONT GOLDCORP CORP /DE/,20190417.0,1-LAF,0,1231.0,8-K,20230430.0,,,20230516,2023-05-15 21:03:00.0,1,0,tm2315741d3_8k_htm.xml,1,,,,,
0001104659-23-062426,1164727,NEWMONT CORP /DE/,1040.0,US,CO,DENVER,80237,6900 E LAYTON AVE,SUITE 700,303-863-7414,US,CO,DENVER,80237,6900 E LAYTON AVE,SUITE 700,US,CO,841611629.0,NEWMONT GOLDCORP CORP /DE/,20190417.0,1-LAF,0,1231.0,8-K,20230531.0,,,20230519,2023-05-19 06:08:00.0,1,0,tm2316167d1_8k_htm.xml,1,,,,,
0001104659-23-062836,1164727,NEWMONT CORP /DE/,1040.0,US,CO,DENVER,80237,6900 E LAYTON AVE,SUITE 700,303-863-7414,US,CO,DENVER,80237,6900 E LAYTON AVE,SUITE 700,US,CO,841611629.0,NEWMONT GOLDCORP CORP /DE/,20190417.0,1-LAF,0,1231.0,8-K,20230531.0,,,20230522,2023-05-19 21:53:00.0,1,0,tm2315741d5_8k_htm.xml,1,,,,,
0001104659-23-068979,1164727,NEWMONT CORP /DE/,1040.0,US,CO,DENVER,80237,6900 E LAYTON AVE,SUITE 700,303-863-7414,US,CO,DENVER,80237,6900 E LAYTON AVE,SUITE 700,US,CO,841611629.0,NEWMONT GOLDCORP CORP /DE/,20190417.0,1-LAF,0,1231.0,8-K,20230531.0,,,20230607,2023-06-07 17:25:00.0,1,0,tm2318139d1_8k_htm.xml,1,,,,,
0001104659-23-073025,1164727,NEWMONT CORP /DE/,1040.0,US,CO,DENVER,80237,6900 E LAYTON AVE,SUITE 700,303-863-7414,US,CO,DENVER,80237,6900 E LAYTON AVE,SUITE 700,US,CO,841611629.0,NEWMONT GOLDCORP CORP /DE/,20190417.0,1-LAF,0,1231.0,8-K,20230630.0,,,20230621,2023-06-20 19:07:00.0,1,0,tm2315741d7_8k_htm.xml,1,,,,,
0001104659-23-073893,1164727,NEWMONT CORP /DE/,1040.0,US,CO,DENVER,80237,6900 E LAYTON AVE,SUITE 700,303-863-7414,US,CO,DENVER,80237,6900 E LAYTON AVE,SUITE 700,US,CO,841611629.0,NEWMONT GOLDCORP CORP /DE/,20190417.0,1-LAF,0,1231.0,8-K,20230630.0,,,20230623,2023-06-22 20:00:00.0,1,0,tm2315741d9_8k_htm.xml,1,,,,,
0001157523-23-000631,1164727,NEWMONT CORP /DE/,1040.0,US,CO,DENVER,80237,6900 E LAYTON AVE,SUITE 700,303-863-7414,US,CO,DENVER,80237,6900 E LAYTON AVE,SUITE 700,US,CO,841611629.0,NEWMONT GOLDCORP CORP /DE/,20190417.0,1-LAF,0,1231.0,8-K,20230430.0,,,20230427,2023-04-27 07:01:00.0,1,0,a53388436_htm.xml,1,,,,,
0001164727-23-000021,1164727,NEWMONT CORP /DE/,1040.0,US,CO,DENVER,80237,6900 E LAYTON AVE,SUITE 700,303-863-7414,US,CO,DENVER,80237,6900 E LAYTON AVE,SUITE 700,US,CO,841611629.0,NEWMONT GOLDCORP CORP /DE/,20190417.0,1-LAF,0,1231.0,10-Q,20230331.0,2023.0,Q1,20230427,2023-04-27 07:02:00.0,0,1,nem-20230331_htm.xml,1,,,,,
0001104659-23-082129,1164727,NEWMONT CORP /DE/,1040.0,US,CO,DENVER,80237,6900 E LAYTON AVE,SUITE 700,303-863-7414,US,CO,DENVER,80237,6900 E LAYTON AVE,SUITE 700,US,CO,841611629.0,NEWMONT GOLDCORP CORP /DE/,20190417.0,1-LAF,0,1231.0,8-K,20230731.0,,,20230719,2023-07-18 21:45:00.0,1,0,tm2315741d11_8k_htm.xml,1,,,,,
0001104659-23-082827,1164727,NEWMONT CORP /DE/,1040.0,US,CO,DENVER,80237,6900 E LAYTON AVE,SUITE 700,303-863-7414,US,CO,DENVER,80237,6900 E LAYTON AVE,SUITE 700,US,CO,841611629.0,NEWMONT GOLDCORP CORP /DE/,20190417.0,1-LAF,0,1231.0,8-K,20230731.0,,,20230721,2023-07-20 21:53:00.0,1,0,tm2315741d13_8k_htm.xml,1,,,,,
0001104659-23-086882,1164727,NEWMONT CORP /DE/,1040.0,US,CO,DENVER,80237,6900 E LAYTON AVE,SUITE 700,303-863-7414,US,CO,DENVER,80237,6900 E LAYTON AVE,SUITE 700,US,CO,841611629.0,NEWMONT GOLDCORP CORP /DE/,20190417.0,1-LAF,0,1231.0,8-K,20230731.0,,,20230802,2023-08-02 17:20:00.0,1,0,tm2315741d15_8k_htm.xml,1,,,,,
0001104659-23-092054,1164727,NEWMONT CORP /DE/,1040.0,US,CO,DENVER,80237,6900 E LAYTON AVE,SUITE 700,303-863-7414,US,CO,DENVER,80237,6900 E LAYTON AVE,SUITE 700,US,CO,841611629.0,NEWMONT GOLDCORP CORP /DE/,20190417.0,1-LAF,0,1231.0,8-K,20230731.0,,,20230816,2023-08-15 17:53:00.0,1,0,tm2315741d17_8k_htm.xml,1,,,,,
0001104659-23-092676,1164727,NEWMONT CORP /DE/,1040.0,US,CO,DENVER,80237,6900 E LAYTON AVE,SUITE 700,303-863-7414,US,CO,DENVER,80237,6900 E LAYTON AVE,SUITE 700,US,CO,841611629.0,NEWMONT GOLDCORP CORP /DE/,20190417.0,1-LAF,0,1231.0,8-K/A,20230831.0,,,20230816,2023-08-16 17:24:00.0,1,0,tm2323982d1_8ka_htm.xml,1,,,,,
0001104659-23-094032,1164727,NEWMONT CORP /DE/,1040.0,US,CO,DENVER,80237,6900 E LAYTON AVE,SUITE 700,303-863-7414,US,CO,DENVER,80237,6900 E LAYTON AVE,SUITE 700,US,CO,841611629.0,NEWMONT GOLDCORP CORP /DE/,20190417.0,1-LAF,0,1231.0,8-K,20230831.0,,,20230822,2023-08-21 21:00:00.0,1,0,tm2315741d19_8k_htm.xml,1,,,,,
0001104659-23-098676,1164727,NEWMONT CORP /DE/,1040.0,US,CO,DENVER,80237,6900 E LAYTON AVE,SUITE 700,303-863-7414,US,CO,DENVER,80237,6900 E LAYTON AVE,SUITE 700,US,CO,841611629.0,NEWMONT GOLDCORP CORP /DE/,20190417.0,1-LAF,0,1231.0,8-K/A,20230430.0,,,20230906,2023-09-06 16:57:00.0,1,0,tm2315741d21_8ka_htm.xml,1,,,,,
0001104659-23-099317,1164727,NEWMONT CORP /DE/,1040.0,US,CO,DENVER,80237,6900 E LAYTON AVE,SUITE 700,303-863-7414,US,CO,DENVER,80237,6900 E LAYTON AVE,SUITE 700,US,CO,841611629.0,NEWMONT GOLDCORP CORP /DE/,20190417.0,1-LAF,0,1231.0,8-K,20230831.0,,,20230908,2023-09-08 16:18:00.0,1,0,tm2314601d5_8k_htm.xml,1,,,,,
0001104659-23-101679,1164727,NEWMONT CORP /DE/,1040.0,US,CO,DENVER,80237,6900 E LAYTON AVE,SUITE 700,303-863-7414,US,CO,DENVER,80237,6900 E LAYTON AVE,SUITE 700,US,CO,841611629.0,NEWMONT GOLDCORP CORP /DE/,20190417.0,1-LAF,0,1231.0,8-K,20230930.0,,,20230918,2023-09-18 17:28:00.0,1,0,tm2326343d1_8k_htm.xml,1,,,,,
0001157523-23-001113,1164727,NEWMONT CORP /DE/,1040.0,US,CO,DENVER,80237,6900 E LAYTON AVE,SUITE 700,303-863-7414,US,CO,DENVER,80237,6900 E LAYTON AVE,SUITE 700,US,CO,841611629.0,NEWMONT GOLDCORP CORP /DE/,20190417.0,1-LAF,0,1231.0,8-K,20230731.0,,,20230720,2023-07-20 07:00:00.0,1,0,a53468942_htm.xml,1,,,,,
0001164727-23-000034,1164727,NEWMONT CORP /DE/,1040.0,US,CO,DENVER,80237,6900 E LAYTON AVE,SUITE 700,303-863-7414,US,CO,DENVER,80237,6900 E LAYTON AVE,SUITE 700,US,CO,841611629.0,NEWMONT GOLDCORP CORP /DE/,20190417.0,1-LAF,0,1231.0,10-Q,20230630.0,2023.0,Q2,20230720,2023-07-20 07:02:00.0,0,1,nem-20230630_htm.xml,1,,,,,
0001164727-23-000035,1164727,NEWMONT CORP /DE/,1040.0,US,CO,DENVER,80237,6900 E LAYTON AVE,SUITE 700,303-863-7414,US,CO,DENVER,80237,6900 E LAYTON AVE,SUITE 700,US,CO,841611629.0,NEWMONT GOLDCORP CORP /DE/,20190417.0,1-LAF,0,1231.0,8-K,20221231.0,,,20230720,2023-07-20 07:07:00.0,1,1,nem-20230720_htm.xml,1,,,,,
0001193125-23-206350,756894,BARRICK GOLD CORP,1040.0,CA,ON,TORONTO ONTARIO CANA,M5J2S1,"BCE PLACE, CANADA TRUST TOWER",161 BAY STREET SUITE 3700,4163077470,CA,ON,ONTARIO M5J2S1,M5J2S1,"BCE PLACE, CANADA TRUST TOWER",P O BOX 212 TORONTO,CA,BC,0.0,BARRICK RESOURCES CORP,19860109.0,,0,1231.0,6-K,20230630.0,2023.0,Q2,20230808,2023-08-08 17:22:00.0,0,1,d470594d6k_htm.xml,1,,,,,
0001193125-23-209218,1323404,WHEATON PRECIOUS METALS CORP.,1040.0,CA,BC,VANCOUVER,V6E 0C3,SUITE 3500,1021 WEST HASTINGS STREEET,604 684 3123,CA,BC,VANCOUVER,V6E 0C3,SUITE 3500,1021 WEST HASTINGS STREEET,CA,ON,980459455.0,SILVER WHEATON CORP.,20050411.0,,0,1231.0,6-K,20230630.0,2023.0,Q2,20230811,2023-08-10 17:44:00.0,0,1,d730946d6k_htm.xml,1,,,,,
0001558370-23-014003,1456346,FRANCO NEVADA CORP,1040.0,CA,ON,TORONTO,M5L 1G9,"199 BAY STREET, SUITE 2000",COMMERCE COURT WEST,416-306-6317,CA,ON,TORONTO,M5L 1G9,"199 BAY STREET, SUITE 2000",COMMERCE COURT WEST,CA,,0.0,,,,0,1231.0,6-K,20230630.0,2023.0,Q2,20230809,2023-08-08 17:46:00.0,0,1,fnv-20230630x6k_htm.xml,1,,,,,
0001558370-16-003258,1164727,NEWMONT MINING CORP /DE/,1040.0,US,CO,GREENWOOD VILLAGE,80111,6363 SOUTH FIDDLERS GREEN CIRCLE,,303-863-7414,US,CO,GREENWOOD VILLAGE,80111,6363 SOUTH FIDDLERS GREEN CIRCLE,,US,DE,841611629.0,DELTA HOLDCO CORP,20020109.0,1-LAF,1,1231.0,10-K,20151231.0,2015.0,FY,20160217,2016-02-17 17:05:00.0,0,1,nem-20151231.xml,1,,12344658944.0,20150630.0,,
0001558370-16-004743,1164727,NEWMONT MINING CORP /DE/,1040.0,US,CO,GREENWOOD VILLAGE,80111,6363 SOUTH FIDDLERS GREEN CIRCLE,,303-863-7414,US,CO,GREENWOOD VILLAGE,80111,6363 SOUTH FIDDLERS GREEN CIRCLE,,US,DE,841611629.0,DELTA HOLDCO CORP,20020109.0,1-LAF,0,1231.0,10-Q,20160331.0,2016.0,Q1,20160420,2016-04-20 17:15:00.0,0,1,nem-20160331.xml,1,,,,,
0001558370-16-006685,1164727,NEWMONT MINING CORP /DE/,1040.0,US,CO,GREENWOOD VILLAGE,80111,6363 SOUTH FIDDLERS GREEN CIRCLE,,303-863-7414,US,CO,GREENWOOD VILLAGE,80111,6363 SOUTH FIDDLERS GREEN CIRCLE,,US,DE,841611629.0,DELTA HOLDCO CORP,20020109.0,1-LAF,0,1231.0,10-Q,20160630.0,2016.0,Q2,20160720,2016-07-20 17:07:00.0,0,1,nem-20160630.xml,1,,,,,
0001558370-16-008756,1164727,NEWMONT MINING CORP /DE/,1040.0,US,CO,GREENWOOD VILLAGE,80111,6363 SOUTH FIDDLERS GREEN CIRCLE,,303-863-7414,US,CO,GREENWOOD VILLAGE,80111,6363 SOUTH FIDDLERS GREEN CIRCLE,,US,DE,841611629.0,DELTA HOLDCO CORP,20020109.0,1-LAF,0,1231.0,10-Q,20160930.0,2016.0,Q3,20161026,2016-10-26 17:14:00.0,0,1,nem-20160930.xml,1,,,,,
0001558370-17-000729,1164727,NEWMONT MINING CORP /DE/,1040.0,US,CO,GREENWOOD VILLAGE,80111,6363 SOUTH FIDDLERS GREEN CIRCLE,,303-863-7414,US,CO,GREENWOOD VILLAGE,80111,6363 SOUTH FIDDLERS GREEN CIRCLE,,US,DE,841611629.0,DELTA HOLDCO CORP,20020109.0,1-LAF,1,1231.0,10-K,20161231.0,2016.0,FY,20170221,2017-02-21 17:30:00.0,0,1,nem-20161231.xml,1,,20723861504.0,20160630.0,,
0001558370-17-002832,1164727,NEWMONT MINING CORP /DE/,1040.0,US,CO,GREENWOOD VILLAGE,80111,6363 SOUTH FIDDLERS GREEN CIRCLE,,303-863-7414,US,CO,GREENWOOD VILLAGE,80111,6363 SOUTH FIDDLERS GREEN CIRCLE,,US,DE,841611629.0,DELTA HOLDCO CORP,20020109.0,1-LAF,0,1231.0,10-Q,20170331.0,2017.0,Q1,20170424,2017-04-24 16:52:00.0,0,1,nem-20170331.xml,1,,,,,
0001558370-17-005290,1164727,NEWMONT MINING CORP /DE/,1040.0,US,CO,GREENWOOD VILLAGE,80111,6363 SOUTH FIDDLERS GREEN CIRCLE,,303-863-7414,US,CO,GREENWOOD VILLAGE,80111,6363 SOUTH FIDDLERS GREEN CIRCLE,,US,DE,841611629.0,DELTA HOLDCO CORP,20020109.0,1-LAF,0,1231.0,10-Q,20170630.0,2017.0,Q2,20170725,2017-07-25 08:17:00.0,0,1,nem-20170630.xml,1,,,,,
0001558370-17-007562,1164727,NEWMONT MINING CORP /DE/,1040.0,US,CO,GREENWOOD VILLAGE,80111,6363 SOUTH FIDDLERS GREEN CIRCLE,,303-863-7414,US,CO,GREENWOOD VILLAGE,80111,6363 SOUTH FIDDLERS GREEN CIRCLE,,US,DE,841611629.0,DELTA HOLDCO CORP,20020109.0,1-LAF,0,1231.0,10-Q,20170930.0,2017.0,Q3,20171026,2017-10-26 07:32:00.0,0,1,nem-20170930.xml,1,,,,,
0001193125-18-047541,756894,BARRICK GOLD CORP,1040.0,CA,ON,TORONTO ONTARIO CANA,M5J2S1,"BCE PLACE, CANADA TRUST TOWER",161 BAY STREET SUITE 3700,4163077470,CA,ON,ONTARIO M5J2S1,M5J2S1,"BCE PLACE, CANADA TRUST TOWER",P O BOX 212 TORONTO,,,0.0,BARRICK RESOURCES CORP,19860109.0,,0,1231.0,6-K,20171231.0,2017.0,FY,20180216,2018-02-15 19:32:00.0,0,1,abx-20171231.xml,1,,,,,
0001558370-18-000894,1164727,NEWMONT MINING CORP /DE/,1040.0,US,CO,GREENWOOD VILLAGE,80111,6363 SOUTH FIDDLERS GREEN CIRCLE,,303-863-7414,US,CO,GREENWOOD VILLAGE,80111,6363 SOUTH FIDDLERS GREEN CIRCLE,,US,DE,841611629.0,DELTA HOLDCO CORP,20020109.0,1-LAF,1,1231.0,10-K,20171231.0,2017.0,FY,20180222,2018-02-22 07:37:00.0,0,1,nem-20171231.xml,1,,17235369984.0,20170630.0,,
0001193125-18-064855,886986,TECK RESOURCES LTD,1400.0,CA,BC,VANCOUVER,V6C 0B3,550 BURRARD ST,"SUITE 3300, BENTALL 5",604 699-4000,CA,BC,VANCOUVER,V6C 0B3,550 BURRARD ST,"SUITE 3300, BENTALL 5",CA,BC,0.0,TECK COMINCO LTD,19940623.0,,0,1231.0,40-F,20171231.0,2017.0,FY,20180301,2018-02-28 19:27:00.0,0,1,teck-20171231.xml,1,,,,,
0001558370-18-001655,1456346,FRANCO NEVADA CORP,1040.0,CA,ON,TORONTO,M5L 1G9,"199 BAY STREET, SUITE 2000",COMMERCE COURT WEST,416-306-6317,CA,ON,TORONTO,M5L 1G9,"199 BAY STREET, SUITE 2000",COMMERCE COURT WEST,CA,,0.0,,,,0,1231.0,6-K,20171231.0,2017.0,FY,20180308,2018-03-07 18:52:00.0,0,1,fnv-20180331.xml,1,,,,,
0001047469-18-002083,2809,AGNICO EAGLE MINES LTD,1040.0,CA,ON,TORONTO,M5C 2Y7,145 KING STREET EAST,SUITE 400,4169471212,CA,ON,TORONTO,M5C 2Y7,145 KING STREET EAST,SUITE 400,CA,ON,0.0,,,1-LAF,0,1231.0,40-F,20171231.0,2017.0,FY,20180323,2018-03-23 17:30:00.0,0,1,aem-20171231.xml,1,,,,,
0001193125-18-094424,756894,BARRICK GOLD CORP,1040.0,CA,ON,TORONTO ONTARIO CANA,M5J2S1,"BCE PLACE, CANADA TRUST TOWER",161 BAY STREET SUITE 3700,4163077470,CA,ON,ONTARIO M5J2S1,M5J2S1,"BCE PLACE, CANADA TRUST TOWER",P O BOX 212 TORONTO,,,0.0,BARRICK RESOURCES CORP,19860109.0,,0,1231.0,40-F,20171231.0,2017.0,FY,20180326,2018-03-23 17:39:00.0,0,1,abx-20171231.xml,1,,,,,
0001193125-18-099445,1009001,CAMECO CORP,1090.0,CA,SK,SASKATOON,S7M 1J3,2121 11TH ST W,,3069566200,CA,SK,SASKATOON,S7M 1J3,2121 11TH ST W.,,,,980113090.0,,,2-ACC,0,1231.0,40-F,20171231.0,2017.0,FY,20180328,2018-03-28 15:57:00.0,0,1,ccj-20171231.xml,1,,,,,
0001558370-18-002485,1456346,FRANCO NEVADA CORP,1040.0,CA,ON,TORONTO,M5L 1G9,"199 BAY STREET, SUITE 2000",COMMERCE COURT WEST,416-306-6317,CA,ON,TORONTO,M5L 1G9,"199 BAY STREET, SUITE 2000",COMMERCE COURT WEST,CA,,0.0,,,,0,1231.0,40-F,20171231.0,2017.0,FY,20180328,2018-03-28 17:20:00.0,0,1,fnv-20171231.xml,1,,,,,
0001104659-18-021288,701818,KINROSS GOLD CORP,1040.0,CA,ON,TORONTO,M5J 2V5,25 YORK STREET,17TH FLOOR,8013639152,CA,ON,TORONTO,M5J 2V5,25 YORK STREET,17TH FLOOR,,,650430083.0,PLEXUS RESOURCES CORP,19920703.0,,0,1231.0,40-F,20171231.0,2017.0,FY,20180329,2018-03-29 16:44:00.0,0,1,kgc-20171231.xml,1,,,,,
0001193125-18-102198,1323404,WHEATON PRECIOUS METALS CORP.,1040.0,CA,BC,VANCOUVER,V6E 0C3,SUITE 3500,1021 WEST HASTINGS STREEET,604 684 3123,CA,BC,VANCOUVER,V6E 0C3,SUITE 3500,1021 WEST HASTINGS STREEET,CA,ON,0.0,SILVER WHEATON CORP.,20050411.0,,0,1231.0,40-F,20171231.0,2017.0,FY,20180329,2018-03-29 17:16:00.0,0,1,wpm-20171231.xml,1,,,,,
0001558370-18-003282,1164727,NEWMONT MINING CORP /DE/,1040.0,US,CO,GREENWOOD VILLAGE,80111,6363 SOUTH FIDDLERS GREEN CIRCLE,,303-863-7414,US,CO,GREENWOOD VILLAGE,80111,6363 SOUTH FIDDLERS GREEN CIRCLE,,US,DE,841611629.0,DELTA HOLDCO CORP,20020109.0,1-LAF,0,1231.0,8-K,20171231.0,2017.0,FY,20180426,2018-04-25 21:02:00.0,1,1,nem-20180426.xml,1,,,,,
0001558370-18-003287,1164727,NEWMONT MINING CORP /DE/,1040.0,US,CO,GREENWOOD VILLAGE,80111,6363 SOUTH FIDDLERS GREEN CIRCLE,,303-863-7414,US,CO,GREENWOOD VILLAGE,80111,6363 SOUTH FIDDLERS GREEN CIRCLE,,US,DE,841611629.0,DELTA HOLDCO CORP,20020109.0,1-LAF,0,1231.0,10-Q,20180331.0,2018.0,Q1,20180426,2018-04-26 07:01:00.0,0,1,nem-20180331.xml,1,,,,,
0001558370-18-004475,1456346,FRANCO NEVADA CORP,1040.0,CA,ON,TORONTO,M5L 1G9,"199 BAY STREET, SUITE 2000",COMMERCE COURT WEST,416-306-6317,CA,ON,TORONTO,M5L 1G9,"199 BAY STREET, SUITE 2000",COMMERCE COURT WEST,CA,,0.0,,,,0,1231.0,6-K,20180331.0,2018.0,Q1,20180509,2018-05-09 16:09:00.0,0,1,fnv-20180531.xml,1,,,,,
0001193125-18-227887,756894,BARRICK GOLD CORP,1040.0,CA,ON,TORONTO ONTARIO CANA,M5J2S1,"BCE PLACE, CANADA TRUST TOWER",161 BAY STREET SUITE 3700,4163077470,CA,ON,ONTARIO M5J2S1,M5J2S1,"BCE PLACE, CANADA TRUST TOWER",P O BOX 212 TORONTO,,,0.0,BARRICK RESOURCES CORP,19860109.0,,0,1231.0,6-K,20180630.0,2018.0,Q2,20180726,2018-07-26 16:57:00.0,0,1,abx-20180630.xml,1,,,,,
0001558370-18-005735,1164727,NEWMONT MINING CORP /DE/,1040.0,US,CO,GREENWOOD VILLAGE,80111,6363 SOUTH FIDDLERS GREEN CIRCLE,,303-863-7414,US,CO,GREENWOOD VILLAGE,80111,6363 SOUTH FIDDLERS GREEN CIRCLE,,US,DE,841611629.0,DELTA HOLDCO CORP,20020109.0,1-LAF,0,1231.0,10-Q,20180630.0,2018.0,Q2,20180726,2018-07-26 07:01:00.0,0,1,nem-20180630.xml,1,,,,,
0001558370-18-006785,1456346,FRANCO NEVADA CORP,1040.0,CA,ON,TORONTO,M5L 1G9,"199 BAY STREET, SUITE 2000",COMMERCE COURT WEST,416-306-6317,CA,ON,TORONTO,M5L 1G9,"199 BAY STREET, SUITE 2000",COMMERCE COURT WEST,CA,,0.0,,,,0,1231.0,6-K,20180630.0,2018.0,Q2,20180808,2018-08-08 16:57:00.0,0,1,fnv-20180831.xml,1,,,,,
0001193125-18-248720,1323404,WHEATON PRECIOUS METALS CORP.,1040.0,CA,BC,VANCOUVER,V6E 0C3,SUITE 3500,1021 WEST HASTINGS STREEET,604 684 3123,CA,BC,VANCOUVER,V6E 0C3,SUITE 3500,1021 WEST HASTINGS STREEET,CA,ON,0.0,SILVER WHEATON CORP.,20050411.0,,0,1231.0,6-K,20180630.0,2018.0,Q2,20180815,2018-08-14 17:57:00.0,0,1,wpm-20180630.xml,1,,,,,
0001558370-18-007843,1164727,NEWMONT MINING CORP /DE/,1040.0,US,CO,GREENWOOD VILLAGE,80111,6363 SOUTH FIDDLERS GREEN CIRCLE,,303-863-7414,US,CO,GREENWOOD VILLAGE,80111,6363 SOUTH FIDDLERS GREEN CIRCLE,,US,DE,841611629.0,DELTA HOLDCO CORP,20020109.0,1-LAF,0,1231.0,10-Q,20180930.0,2018.0,Q3,20181025,2018-10-25 07:05:00.0,0,1,nem-20180930.xml,1,,,,,
0001558370-18-008502,1456346,FRANCO NEVADA CORP,1040.0,CA,ON,TORONTO,M5L 1G9,"199 BAY STREET, SUITE 2000",COMMERCE COURT WEST,416-306-6317,CA,ON,TORONTO,M5L 1G9,"199 BAY STREET, SUITE 2000",COMMERCE COURT WEST,CA,,0.0,,,,0,1231.0,6-K,20180930.0,2018.0,Q3,20181105,2018-11-05 17:22:00.0,0,1,fnv-20180930.xml,1,,,,,
0001193125-19-040445,756894,BARRICK GOLD CORP,1040.0,CA,ON,TORONTO ONTARIO CANA,M5J2S1,"BCE PLACE, CANADA TRUST TOWER",161 BAY STREET SUITE 3700,4163077470,CA,ON,ONTARIO M5J2S1,M5J2S1,"BCE PLACE, CANADA TRUST TOWER",P O BOX 212 TORONTO,CA,BC,0.0,BARRICK RESOURCES CORP,19860109.0,,0,1231.0,6-K,20181231.0,2018.0,FY,20190214,2019-02-14 15:09:00.0,0,1,abx-20181231.xml,1,,,,,
0001558370-19-000806,1164727,NEWMONT MINING CORP /DE/,1040.0,US,CO,GREENWOOD VILLAGE,80111,6363 SOUTH FIDDLERS GREEN CIRCLE,,303-863-7414,US,CO,GREENWOOD VILLAGE,80111,6363 SOUTH FIDDLERS GREEN CIRCLE,,US,DE,841611629.0,DELTA HOLDCO CORP,20020109.0,1-LAF,1,1231.0,10-K,20181231.0,2018.0,FY,20190221,2019-02-21 07:09:00.0,0,1,nem-20181231.xml,1,,20052690944.0,20180630.0,,
0001193125-19-053855,1725964,NUTRIEN LTD.,2870.0,CA,SK,SASKATOON,S7K 7G3,"SUITE 500, 122 - 1ST AVENUE SOUTH",,(306) 933-8500,CA,SK,SASKATOON,S7K 7G3,"SUITE 500, 122 - 1ST AVENUE SOUTH",,CA,,981400416.0,,,,0,1231.0,40-F,20181231.0,2018.0,FY,20190227,2019-02-27 15:13:00.0,0,1,ntr-20181231.xml,1,,,,,
0001193125-19-055171,886986,TECK RESOURCES LTD,1400.0,CA,BC,VANCOUVER,V6C 0B3,550 BURRARD ST,"SUITE 3300, BENTALL 5",604-699-4000,CA,BC,VANCOUVER,V6C 0B3,550 BURRARD ST,"SUITE 3300, BENTALL 5",CA,BC,0.0,TECK COMINCO LTD,19940623.0,,0,1231.0,40-F,20181231.0,2018.0,FY,20190228,2019-02-27 21:45:00.0,0,1,teck-20181231.xml,1,,,,,
0001558370-19-002290,1456346,FRANCO NEVADA CORP,1040.0,CA,ON,TORONTO,M5L 1G9,"199 BAY STREET, SUITE 2000",COMMERCE COURT WEST,416-306-6317,CA,ON,TORONTO,M5L 1G9,"199 BAY STREET, SUITE 2000",COMMERCE COURT WEST,CA,,0.0,,,,0,1231.0,6-K,20181231.0,2018.0,FY,20190319,2019-03-19 17:26:00.0,0,1,fnv-20181231.xml,1,,,,,
0001193125-19-083744,756894,BARRICK GOLD CORP,1040.0,CA,ON,TORONTO ONTARIO CANA,M5J2S1,"BCE PLACE, CANADA TRUST TOWER",161 BAY STREET SUITE 3700,4163077470,CA,ON,ONTARIO M5J2S1,M5J2S1,"BCE PLACE, CANADA TRUST TOWER",P O BOX 212 TORONTO,CA,BC,0.0,BARRICK RESOURCES CORP,19860109.0,,0,1231.0,40-F,20181231.0,2018.0,FY,20190322,2019-03-22 17:26:00.0,0,1,abx-20181231.xml,1,,,,,
0001047469-19-001634,2809,AGNICO EAGLE MINES LTD,1040.0,CA,ON,TORONTO,M5C 2Y7,145 KING STREET EAST,SUITE 400,4169471212,CA,ON,TORONTO,M5C 2Y7,145 KING STREET EAST,SUITE 400,CA,ON,0.0,,,1-LAF,0,1231.0,40-F,20181231.0,2018.0,FY,20190326,2019-03-26 17:28:00.0,0,1,aem-20181231.xml,1,,,,,
0001558370-19-002489,1456346,FRANCO NEVADA CORP,1040.0,CA,ON,TORONTO,M5L 1G9,"199 BAY STREET, SUITE 2000",COMMERCE COURT WEST,416-306-6317,CA,ON,TORONTO,M5L 1G9,"199 BAY STREET, SUITE 2000",COMMERCE COURT WEST,CA,,0.0,,,,0,1231.0,40-F,20181231.0,2018.0,FY,20190327,2019-03-27 17:02:00.0,0,1,fnv-20181231.xml,1,,,,,
0001104659-19-018715,701818,KINROSS GOLD CORP,1040.0,CA,ON,TORONTO,M5J 2V5,25 YORK STREET,17TH FLOOR,8013639152,CA,ON,TORONTO,M5J 2V5,25 YORK STREET,17TH FLOOR,,,650430083.0,PLEXUS RESOURCES CORP,19920703.0,,0,1231.0,40-F,20181231.0,2018.0,FY,20190329,2019-03-29 16:37:00.0,0,1,kgc-20181231.xml,1,,,,,
0001193125-19-092356,1009001,CAMECO CORP,1090.0,CA,SK,SASKATOON,S7M 1J3,2121 11TH ST W,,3069566200,CA,SK,SASKATOON,S7M 1J3,2121 11TH ST W.,,,,980113090.0,,,2-ACC,0,1231.0,40-F,20181231.0,2018.0,FY,20190329,2019-03-29 13:29:00.0,0,1,ccj-20181231.xml,1,,,,,
0001193125-19-094594,1323404,WHEATON PRECIOUS METALS CORP.,1040.0,CA,BC,VANCOUVER,V6E 0C3,SUITE 3500,1021 WEST HASTINGS STREEET,604 684 3123,CA,BC,VANCOUVER,V6E 0C3,SUITE 3500,1021 WEST HASTINGS STREEET,CA,ON,0.0,SILVER WHEATON CORP.,20050411.0,,0,1231.0,40-F,20181231.0,2018.0,FY,20190401,2019-04-01 16:37:00.0,0,1,wpm-20181231.xml,1,,,,,
0001558370-19-003261,1164727,NEWMONT GOLDCORP CORP /DE/,1040.0,US,CO,GREENWOOD VILLAGE,80111,6363 SOUTH FIDDLERS GREEN CIRCLE,,303-863-7414,US,CO,GREENWOOD VILLAGE,80111,6363 SOUTH FIDDLERS GREEN CIRCLE,,US,DE,841611629.0,NEWMONT MINING CORP /DE/,20020215.0,1-LAF,0,1231.0,10-Q,20190331.0,2019.0,Q1,20190425,2019-04-25 07:03:00.0,0,1,nem-20190331.xml,1,,,,,
0001558370-19-006289,1164727,NEWMONT GOLDCORP CORP /DE/,1040.0,US,CO,GREENWOOD VILLAGE,80111,6363 SOUTH FIDDLERS GREEN CIRCLE,,303-863-7414,US,CO,GREENWOOD VILLAGE,80111,6363 SOUTH FIDDLERS GREEN CIRCLE,,US,DE,841611629.0,NEWMONT MINING CORP /DE/,20020215.0,1-LAF,0,1231.0,10-Q,20190630.0,2019.0,Q2,20190725,2019-07-25 07:04:00.0,0,1,nem-20190630x10q_htm.xml,1,,,,,
0001558370-19-007507,1456346,FRANCO NEVADA CORP,1040.0,CA,ON,TORONTO,M5L 1G9,"199 BAY STREET, SUITE 2000",COMMERCE COURT WEST,416-306-6317,CA,ON,TORONTO,M5L 1G9,"199 BAY STREET, SUITE 2000",COMMERCE COURT WEST,CA,,0.0,,,,0,1231.0,6-K,20190630.0,2019.0,Q2,20190807,2019-08-07 17:09:00.0,0,1,fnv-20190630.xml,1,,,,,
0001193125-19-217075,1323404,WHEATON PRECIOUS METALS CORP.,1040.0,CA,BC,VANCOUVER,V6E 0C3,SUITE 3500,1021 WEST HASTINGS STREEET,604 684 3123,CA,BC,VANCOUVER,V6E 0C3,SUITE 3500,1021 WEST HASTINGS STREEET,CA,ON,980459455.0,SILVER WHEATON CORP.,20050411.0,,0,1231.0,6-K,20190630.0,2019.0,Q2,20190809,2019-08-08 18:15:00.0,0,1,wpm-20190630.xml,1,,,,,
0001193125-19-218473,756894,BARRICK GOLD CORP,1040.0,CA,ON,TORONTO ONTARIO CANA,M5J2S1,"BCE PLACE, CANADA TRUST TOWER",161 BAY STREET SUITE 3700,4163077470,CA,ON,ONTARIO M5J2S1,M5J2S1,"BCE PLACE, CANADA TRUST TOWER",P O BOX 212 TORONTO,CA,BC,0.0,BARRICK RESOURCES CORP,19860109.0,,0,1231.0,6-K,20190630.0,2019.0,Q2,20190812,2019-08-12 07:25:00.0,0,1,abx-20190630.xml,1,,,,,
0001410578-19-000968,1164727,NEWMONT GOLDCORP CORP /DE/,1040.0,US,CO,GREENWOOD VILLAGE,80111,6363 SOUTH FIDDLERS GREEN CIRCLE,,303-863-7414,US,CO,GREENWOOD VILLAGE,80111,6363 SOUTH FIDDLERS GREEN CIRCLE,,US,DE,841611629.0,NEWMONT MINING CORP /DE/,20020215.0,1-LAF,0,1231.0,8-K,20190831.0,,,20190829,2019-08-29 16:06:00.0,1,0,tv528189_8k_htm.xml,1,,,,,
0001410578-19-001046,1164727,NEWMONT GOLDCORP CORP /DE/,1040.0,US,CO,GREENWOOD VILLAGE,80111,6363 SOUTH FIDDLERS GREEN CIRCLE,,303-863-7414,US,CO,GREENWOOD VILLAGE,80111,6363 SOUTH FIDDLERS GREEN CIRCLE,,US,DE,841611629.0,NEWMONT MINING CORP /DE/,20020215.0,1-LAF,0,1231.0,8-K,20190831.0,,,20190905,2019-09-05 09:25:00.0,1,0,tv528924_8k_htm.xml,1,,,,,
0001410578-19-001064,1164727,NEWMONT GOLDCORP CORP /DE/,1040.0,US,CO,GREENWOOD VILLAGE,80111,6363 SOUTH FIDDLERS GREEN CIRCLE,,303-863-7414,US,CO,GREENWOOD VILLAGE,80111,6363 SOUTH FIDDLERS GREEN CIRCLE,,US,DE,841611629.0,NEWMONT MINING CORP /DE/,20020215.0,1-LAF,0,1231.0,8-K,20190831.0,,,20190906,2019-09-06 11:43:00.0,1,0,tv528926_8k_htm.xml,1,,,,,
0001410578-19-001191,1164727,NEWMONT GOLDCORP CORP /DE/,1040.0,US,CO,GREENWOOD VILLAGE,80111,6363 SOUTH FIDDLERS GREEN CIRCLE,,303-863-7414,US,CO,GREENWOOD VILLAGE,80111,6363 SOUTH FIDDLERS GREEN CIRCLE,,US,DE,841611629.0,NEWMONT MINING CORP /DE/,20020215.0,1-LAF,0,1231.0,8-K/A,20190831.0,,,20190912,2019-09-12 07:01:00.0,0,0,tv529276_8ka_htm.xml,1,,,,,
0001410578-19-001253,1164727,NEWMONT GOLDCORP CORP /DE/,1040.0,US,CO,GREENWOOD VILLAGE,80111,6363 SOUTH FIDDLERS GREEN CIRCLE,,303-863-7414,US,CO,GREENWOOD VILLAGE,80111,6363 SOUTH FIDDLERS GREEN CIRCLE,,US,DE,841611629.0,NEWMONT MINING CORP /DE/,20020215.0,1-LAF,0,1231.0,8-K,20190930.0,,,20190916,2019-09-16 16:06:00.0,0,0,tv529458_8k_htm.xml,1,,,,,
0000950123-11-069854,1164727,NEWMONT MINING CORP /DE/,1040.0,US,CO,GREENWOOD VILLAGE,80111,6363 SOUTH FIDDLERS GREEN CIRCLE,,303-863-7414,US,CO,GREENWOOD VILLAGE,80111,6363 SOUTH FIDDLERS GREEN CIRCLE,,US,DE,841611629.0,DELTA HOLDCO CORP,20020109.0,1-LAF,1,1231.0,10-Q,20110630.0,2011.0,Q2,20110729,2011-07-28 20:38:00.0,0,1,nem-20110630.xml,1,,,,,
0001047469-11-007301,2809,AGNICO EAGLE MINES LTD,1040.0,CA,ON,TORONTO,M5C 2Y7,145 KING STREET EAST,SUITE 400,4169471212,CA,ON,TORONTO,M5C 2Y7,145 KING STREET EAST,SUITE 400,CA,ON,0.0,,,1-LAF,0,1231.0,6-K,20110630.0,2011.0,Q2,20110812,2011-08-12 08:51:00.0,0,1,aem-20110630.xml,1,,,,,
0001558370-15-001997,1164727,NEWMONT MINING CORP /DE/,1040.0,US,CO,GREENWOOD VILLAGE,80111,6363 SOUTH FIDDLERS GREEN CIRCLE,,303-863-7414,US,CO,GREENWOOD VILLAGE,80111,6363 SOUTH FIDDLERS GREEN CIRCLE,,US,DE,841611629.0,DELTA HOLDCO CORP,20020109.0,1-LAF,0,1231.0,10-Q,20150930.0,2015.0,Q3,20151029,2015-10-28 17:46:00.0,0,1,nem-20150930.xml,1,,,,,
0001157523-19-002190,1164727,NEWMONT GOLDCORP CORP /DE/,1040.0,US,CO,GREENWOOD VILLAGE,80111,6363 SOUTH FIDDLERS GREEN CIRCLE,,303-863-7414,US,CO,GREENWOOD VILLAGE,80111,6363 SOUTH FIDDLERS GREEN CIRCLE,,US,DE,841611629.0,NEWMONT MINING CORP /DE/,20020215.0,1-LAF,0,1231.0,8-K,20191031.0,,,20191105,2019-11-05 07:56:00.0,0,0,a52123028_htm.xml,1,,,,,
0001558370-19-009890,1164727,NEWMONT GOLDCORP CORP /DE/,1040.0,US,CO,GREENWOOD VILLAGE,80111,6363 SOUTH FIDDLERS GREEN CIRCLE,,303-863-7414,US,CO,GREENWOOD VILLAGE,80111,6363 SOUTH FIDDLERS GREEN CIRCLE,,US,DE,841611629.0,NEWMONT MINING CORP /DE/,20020215.0,1-LAF,0,1231.0,10-Q,20190930.0,2019.0,Q3,20191105,2019-11-05 08:08:00.0,0,1,nem-20190930x10q294e94_htm.xml,1,,,,,
0001104659-19-062722,1164727,NEWMONT GOLDCORP CORP /DE/,1040.0,US,CO,GREENWOOD VILLAGE,80111,6363 SOUTH FIDDLERS GREEN CIRCLE,,303-863-7414,US,CO,GREENWOOD VILLAGE,80111,6363 SOUTH FIDDLERS GREEN CIRCLE,,US,DE,841611629.0,NEWMONT MINING CORP /DE/,20020215.0,1-LAF,0,1231.0,8-K,20191031.0,,,20191112,2019-11-12 17:14:00.0,0,0,tm1922387d1_8k_htm.xml,1,,,,,
0001104659-19-073524,1164727,NEWMONT GOLDCORP CORP /DE/,1040.0,US,CO,GREENWOOD VILLAGE,80111,6363 SOUTH FIDDLERS GREEN CIRCLE,,303-863-7414,US,CO,GREENWOOD VILLAGE,80111,6363 SOUTH FIDDLERS GREEN CIRCLE,,US,DE,841611629.0,NEWMONT MINING CORP /DE/,20020215.0,1-LAF,0,1231.0,8-K,20191231.0,,,20191218,2019-12-17 21:51:00.0,0,0,tm1926441d1_8k_htm.xml,1,,,,,
0001104659-23-105520,1164727,NEWMONT CORP /DE/,1040.0,US,CO,DENVER,80237,6900 E LAYTON AVE,SUITE 700,303-863-7414,US,CO,DENVER,80237,6900 E LAYTON AVE,SUITE 700,US,CO,841611629.0,NEWMONT GOLDCORP CORP /DE/,20190417.0,1-LAF,0,1231.0,8-K/A,20230131.0,,,20231002,2023-10-02 06:02:00.0,1,0,tm2327175d2_8ka_htm.xml,1,,,,,
0001104659-23-106658,1164727,NEWMONT CORP /DE/,1040.0,US,CO,DENVER,80237,6900 E LAYTON AVE,SUITE 700,303-863-7414,US,CO,DENVER,80237,6900 E LAYTON AVE,SUITE 700,US,CO,841611629.0,NEWMONT GOLDCORP CORP /DE/,20190417.0,1-LAF,0,1231.0,8-K,20230930.0,,,20231004,2023-10-04 09:24:00.0,1,0,tm2327175d6_8k_htm.xml,1,,,,,
0001104659-23-106890,1164727,NEWMONT CORP /DE/,1040.0,US,CO,DENVER,80237,6900 E LAYTON AVE,SUITE 700,303-863-7414,US,CO,DENVER,80237,6900 E LAYTON AVE,SUITE 700,US,CO,841611629.0,NEWMONT GOLDCORP CORP /DE/,20190417.0,1-LAF,0,1231.0,8-K,20230930.0,,,20231004,2023-10-04 17:24:00.0,1,0,tm2327175d7_8k_htm.xml,1,,,,,
0001104659-23-108635,1164727,NEWMONT CORP /DE/,1040.0,US,CO,DENVER,80237,6900 E LAYTON AVE,SUITE 700,303-863-7414,US,CO,DENVER,80237,6900 E LAYTON AVE,SUITE 700,US,CO,841611629.0,NEWMONT GOLDCORP CORP /DE/,20190417.0,1-LAF,0,1231.0,8-K,20230930.0,,,20231012,2023-10-11 20:14:00.0,1,0,tm2328257d1_8k_htm.xml,1,,,,,
0001104659-23-109956,1164727,NEWMONT CORP /DE/,1040.0,US,CO,DENVER,80237,6900 E LAYTON AVE,SUITE 700,303-863-7414,US,CO,DENVER,80237,6900 E LAYTON AVE,SUITE 700,US,CO,841611629.0,NEWMONT GOLDCORP CORP /DE/,20190417.0,1-LAF,0,1231.0,8-K,20231031.0,,,20231019,2023-10-18 21:07:00.0,1,0,tm2328750d1_8k_htm.xml,1,,,,,
0001104659-23-114506,1164727,NEWMONT CORP /DE/,1040.0,US,CO,DENVER,80237,6900 E LAYTON AVE,SUITE 700,303-863-7414,US,CO,DENVER,80237,6900 E LAYTON AVE,SUITE 700,US,DE,841611629.0,NEWMONT GOLDCORP CORP /DE/,20190417.0,1-LAF,0,1231.0,8-K,20231031.0,,,20231106,2023-11-06 08:23:00.0,1,0,tm2329893d1_8k_htm.xml,1,,,,,
0001104659-23-121110,1164727,NEWMONT CORP /DE/,1040.0,US,CO,DENVER,80237,6900 E LAYTON AVE,SUITE 700,303-863-7414,US,CO,DENVER,80237,6900 E LAYTON AVE,SUITE 700,US,DE,841611629.0,NEWMONT GOLDCORP CORP /DE/,20190417.0,1-LAF,0,1231.0,8-K,20231130.0,,,20231127,2023-11-27 08:37:00.0,1,0,tm2331336d1_8k_htm.xml,1,,,,,
0001104659-23-130194,1164727,NEWMONT CORP /DE/,1040.0,US,CO,DENVER,80237,6900 E LAYTON AVE,SUITE 700,303-863-7414,US,CO,DENVER,80237,6900 E LAYTON AVE,SUITE 700,US,DE,841611629.0,NEWMONT GOLDCORP CORP /DE/,20190417.0,1-LAF,0,1231.0,8-K,20231231.0,,,20231229,2023-12-28 20:05:00.0,1,0,tm2333727d1_8k_htm.xml,1,,,,,
0001157523-23-001555,1164727,NEWMONT CORP /DE/,1040.0,US,CO,DENVER,80237,6900 E LAYTON AVE,SUITE 700,303-863-7414,US,CO,DENVER,80237,6900 E LAYTON AVE,SUITE 700,US,CO,841611629.0,NEWMONT GOLDCORP CORP /DE/,20190417.0,1-LAF,0,1231.0,8-K,20231031.0,,,20231026,2023-10-26 07:01:00.0,1,0,a53687147_htm.xml,1,,,,,
0001164727-23-000039,1164727,NEWMONT CORP /DE/,1040.0,US,CO,DENVER,80237,6900 E LAYTON AVE,SUITE 700,303-863-7414,US,CO,DENVER,80237,6900 E LAYTON AVE,SUITE 700,US,CO,841611629.0,NEWMONT GOLDCORP CORP /DE/,20190417.0,1-LAF,0,1231.0,10-Q,20230930.0,2023.0,Q3,20231026,2023-10-26 07:03:00.0,0,1,nem-20230930_htm.xml,1,,,,,
0001164727-23-000045,1164727,NEWMONT CORP /DE/,1040.0,US,CO,DENVER,80237,6900 E LAYTON AVE,SUITE 700,303-863-7414,US,CO,DENVER,80237,6900 E LAYTON AVE,SUITE 700,US,DE,841611629.0,NEWMONT GOLDCORP CORP /DE/,20190417.0,1-LAF,0,1231.0,8-K/A,20231031.0,,,20231120,2023-11-20 17:15:00.0,1,0,nem-20231103_htm.xml,1,,,,,
0000950123-11-092539,1164727,NEWMONT MINING CORP /DE/,1040.0,US,CO,GREENWOOD VILLAGE,80111,6363 SOUTH FIDDLERS GREEN CIRCLE,,303-863-7414,US,CO,GREENWOOD VILLAGE,80111,6363 SOUTH FIDDLERS GREEN CIRCLE,,US,DE,841611629.0,DELTA HOLDCO CORP,20020109.0,1-LAF,1,1231.0,10-Q,20110930.0,2011.0,Q3,20111027,2011-10-27 17:25:00.0,0,1,nem-20110930.xml,1,,,,,
0001047469-11-009311,2809,AGNICO EAGLE MINES LTD,1040.0,CA,ON,TORONTO,M5C 2Y7,145 KING STREET EAST,SUITE 400,4169471212,CA,ON,TORONTO,M5C 2Y7,145 KING STREET EAST,SUITE 400,CA,ON,0.0,,,1-LAF,0,1231.0,6-K,20110930.0,2011.0,Q3,20111109,2011-11-09 17:09:00.0,0,1,aem-20110930.xml,1,,,,,
0001193125-12-075918,1164727,NEWMONT MINING CORP /DE/,1040.0,US,CO,GREENWOOD VILLAGE,80111,6363 SOUTH FIDDLERS GREEN CIRCLE,,303-863-7414,US,CO,GREENWOOD VILLAGE,80111,6363 SOUTH FIDDLERS GREEN CIRCLE,,US,DE,841611629.0,DELTA HOLDCO CORP,20020109.0,1-LAF,1,1231.0,10-K,20111231.0,2011.0,FY,20120224,2012-02-23 19:51:00.0,0,1,nem-20111231.xml,1,,26633084928.0,20110630.0,,
0001047469-12-003484,2809,AGNICO EAGLE MINES LTD,1040.0,CA,ON,TORONTO,M5C 2Y7,145 KING STREET EAST,SUITE 400,4169471212,CA,ON,TORONTO,M5C 2Y7,145 KING STREET EAST,SUITE 400,CA,ON,0.0,,,1-LAF,1,1231.0,20-F,20111231.0,2011.0,FY,20120329,2012-03-28 20:58:00.0,0,1,aem-20111231.xml,1,,,,,
0001193125-12-186323,1164727,NEWMONT MINING CORP /DE/,1040.0,US,CO,GREENWOOD VILLAGE,80111,6363 SOUTH FIDDLERS GREEN CIRCLE,,303-863-7414,US,CO,GREENWOOD VILLAGE,80111,6363 SOUTH FIDDLERS GREEN CIRCLE,,US,DE,841611629.0,DELTA HOLDCO CORP,20020109.0,1-LAF,1,1231.0,10-Q,20120331.0,2012.0,Q1,20120426,2012-04-26 16:55:00.0,0,1,nem-20120331.xml,1,,,,,
0001047469-12-005542,2809,AGNICO EAGLE MINES LTD,1040.0,CA,ON,TORONTO,M5C 2Y7,145 KING STREET EAST,SUITE 400,4169471212,CA,ON,TORONTO,M5C 2Y7,145 KING STREET EAST,SUITE 400,CA,ON,0.0,,,1-LAF,0,1231.0,6-K,20120331.0,2012.0,Q1,20120508,2012-05-08 14:10:00.0,0,1,aem-20120331.xml,1,,,,,
0001193125-12-317060,1164727,NEWMONT MINING CORP /DE/,1040.0,US,CO,GREENWOOD VILLAGE,80111,6363 SOUTH FIDDLERS GREEN CIRCLE,,303-863-7414,US,CO,GREENWOOD VILLAGE,80111,6363 SOUTH FIDDLERS GREEN CIRCLE,,US,DE,841611629.0,DELTA HOLDCO CORP,20020109.0,1-LAF,1,1231.0,10-Q,20120630.0,2012.0,Q2,20120726,2012-07-26 17:16:00.0,0,1,nem-20120630.xml,1,,,,,
0001047469-12-007959,2809,AGNICO EAGLE MINES LTD,1040.0,CA,ON,TORONTO,M5C 2Y7,145 KING STREET EAST,SUITE 400,4169471212,CA,ON,TORONTO,M5C 2Y7,145 KING STREET EAST,SUITE 400,CA,ON,0.0,,,1-LAF,0,1231.0,6-K,20120630.0,2012.0,Q2,20120808,2012-08-08 13:30:00.0,0,1,aem-20120630.xml,1,,,,,
0001193125-12-446912,1164727,NEWMONT MINING CORP /DE/,1040.0,US,CO,GREENWOOD VILLAGE,80111,6363 SOUTH FIDDLERS GREEN CIRCLE,,303-863-7414,US,CO,GREENWOOD VILLAGE,80111,6363 SOUTH FIDDLERS GREEN CIRCLE,,US,DE,841611629.0,DELTA HOLDCO CORP,20020109.0,1-LAF,1,1231.0,10-Q,20120930.0,2012.0,Q3,20121101,2012-11-01 17:16:00.0,0,1,nem-20120930.xml,1,,,,,
0001047469-12-010054,2809,AGNICO EAGLE MINES LTD,1040.0,CA,ON,TORONTO,M5C 2Y7,145 KING STREET EAST,SUITE 400,4169471212,CA,ON,TORONTO,M5C 2Y7,145 KING STREET EAST,SUITE 400,CA,ON,0.0,,,1-LAF,0,1231.0,6-K,20120930.0,2012.0,Q3,20121105,2012-11-05 15:08:00.0,0,1,aem-20120930.xml,1,,,,,
0001193125-13-070256,1164727,NEWMONT MINING CORP /DE/,1040.0,US,CO,GREENWOOD VILLAGE,80111,6363 SOUTH FIDDLERS GREEN CIRCLE,,303-863-7414,US,CO,GREENWOOD VILLAGE,80111,6363 SOUTH FIDDLERS GREEN CIRCLE,,US,DE,841611629.0,DELTA HOLDCO CORP,20020109.0,1-LAF,1,1231.0,10-K,20121231.0,2012.0,FY,20130222,2013-02-22 06:13:00.0,0,1,nem-20121231.xml,1,,24031299584.0,20120629.0,,
0001047469-13-003581,2809,AGNICO EAGLE MINES LTD,1040.0,CA,ON,TORONTO,M5C 2Y7,145 KING STREET EAST,SUITE 400,4169471212,CA,ON,TORONTO,M5C 2Y7,145 KING STREET EAST,SUITE 400,CA,ON,0.0,,,1-LAF,1,1231.0,20-F,20121231.0,2012.0,FY,20130328,2013-03-28 16:23:00.0,0,1,aem-20121231.xml,1,,,,,
0001193125-13-183142,1164727,NEWMONT MINING CORP /DE/,1040.0,US,CO,GREENWOOD VILLAGE,80111,6363 SOUTH FIDDLERS GREEN CIRCLE,,303-863-7414,US,CO,GREENWOOD VILLAGE,80111,6363 SOUTH FIDDLERS GREEN CIRCLE,,US,DE,841611629.0,DELTA HOLDCO CORP,20020109.0,1-LAF,1,1231.0,10-Q,20130331.0,2013.0,Q1,20130430,2013-04-29 19:34:00.0,0,1,nem-20130331.xml,1,,,,,
0001047469-13-005913,2809,AGNICO EAGLE MINES LTD,1040.0,CA,ON,TORONTO,M5C 2Y7,145 KING STREET EAST,SUITE 400,4169471212,CA,ON,TORONTO,M5C 2Y7,145 KING STREET EAST,SUITE 400,CA,ON,0.0,,,1-LAF,0,1231.0,6-K,20130331.0,2013.0,Q1,20130510,2013-05-10 17:29:00.0,0,1,aem-20130331.xml,1,,,,,
0001193125-13-303560,1164727,NEWMONT MINING CORP /DE/,1040.0,US,CO,GREENWOOD VILLAGE,80111,6363 SOUTH FIDDLERS GREEN CIRCLE,,303-863-7414,US,CO,GREENWOOD VILLAGE,80111,6363 SOUTH FIDDLERS GREEN CIRCLE,,US,DE,841611629.0,DELTA HOLDCO CORP,20020109.0,1-LAF,1,1231.0,10-Q,20130630.0,2013.0,Q2,20130726,2013-07-26 06:14:00.0,0,1,nem-20130630.xml,1,,,,,
0001047469-13-008312,2809,AGNICO EAGLE MINES LTD,1040.0,CA,ON,TORONTO,M5C 2Y7,145 KING STREET EAST,SUITE 400,4169471212,CA,ON,TORONTO,M5C 2Y7,145 KING STREET EAST,SUITE 400,CA,ON,0.0,,,1-LAF,0,1231.0,6-K,20130630.0,2013.0,Q2,20130809,2013-08-09 15:32:00.0,0,1,aem-20130630.xml,1,,,,,
0001193125-13-421225,1164727,NEWMONT MINING CORP /DE/,1040.0,US,CO,GREENWOOD VILLAGE,80111,6363 SOUTH FIDDLERS GREEN CIRCLE,,303-863-7414,US,CO,GREENWOOD VILLAGE,80111,6363 SOUTH FIDDLERS GREEN CIRCLE,,US,DE,841611629.0,DELTA HOLDCO CORP,20020109.0,1-LAF,1,1231.0,10-Q,20130930.0,2013.0,Q3,20131031,2013-10-31 17:25:00.0,0,1,nem-20130930.xml,1,,,,,
0001047469-13-010402,2809,AGNICO EAGLE MINES LTD,1040.0,CA,ON,TORONTO,M5C 2Y7,145 KING STREET EAST,SUITE 400,4169471212,CA,ON,TORONTO,M5C 2Y7,145 KING STREET EAST,SUITE 400,CA,ON,0.0,,,1-LAF,0,1231.0,6-K,20130930.0,2013.0,Q3,20131108,2013-11-08 13:18:00.0,0,1,aem-20130930.xml,1,,,,,
0001193125-14-061205,1164727,NEWMONT MINING CORP /DE/,1040.0,US,CO,GREENWOOD VILLAGE,80111,6363 SOUTH FIDDLERS GREEN CIRCLE,,303-863-7414,US,CO,GREENWOOD VILLAGE,80111,6363 SOUTH FIDDLERS GREEN CIRCLE,,US,DE,841611629.0,DELTA HOLDCO CORP,20020109.0,1-LAF,1,1231.0,10-K,20131231.0,2013.0,FY,20140221,2014-02-20 19:49:00.0,0,1,nem-20131231.xml,1,,14891639808.0,20130628.0,,
0001047469-14-003006,2809,AGNICO EAGLE MINES LTD,1040.0,CA,ON,TORONTO,M5C 2Y7,145 KING STREET EAST,SUITE 400,4169471212,CA,ON,TORONTO,M5C 2Y7,145 KING STREET EAST,SUITE 400,CA,ON,0.0,,,1-LAF,0,1231.0,40-F,20131231.0,2013.0,FY,20140326,2014-03-26 15:56:00.0,0,1,aem-20131231.xml,1,,,,,
0001193125-14-158041,1164727,NEWMONT MINING CORP /DE/,1040.0,US,CO,GREENWOOD VILLAGE,80111,6363 SOUTH FIDDLERS GREEN CIRCLE,,303-863-7414,US,CO,GREENWOOD VILLAGE,80111,6363 SOUTH FIDDLERS GREEN CIRCLE,,US,DE,841611629.0,DELTA HOLDCO CORP,20020109.0,1-LAF,0,1231.0,10-Q,20140331.0,2014.0,Q1,20140425,2014-04-25 06:10:00.0,0,1,nem-20140331.xml,1,,,,,
0001047469-14-004840,2809,AGNICO EAGLE MINES LTD,1040.0,CA,ON,TORONTO,M5C 2Y7,145 KING STREET EAST,SUITE 400,4169471212,CA,ON,TORONTO,M5C 2Y7,145 KING STREET EAST,SUITE 400,CA,ON,0.0,,,1-LAF,0,1231.0,6-K,20140331.0,2014.0,Q1,20140512,2014-05-12 14:57:00.0,0,1,aem-20140331.xml,1,,,,,
0001193125-14-236178,1164727,NEWMONT MINING CORP /DE/,1040.0,US,CO,GREENWOOD VILLAGE,80111,6363 SOUTH FIDDLERS GREEN CIRCLE,,303-863-7414,US,CO,GREENWOOD VILLAGE,80111,6363 SOUTH FIDDLERS GREEN CIRCLE,,US,DE,841611629.0,DELTA HOLDCO CORP,20020109.0,1-LAF,0,1231.0,8-K,20131231.0,2013.0,FY,20140613,2014-06-13 15:56:00.0,1,1,nem-20131231.xml,1,,,,,
0001193125-14-285190,1164727,NEWMONT MINING CORP /DE/,1040.0,US,CO,GREENWOOD VILLAGE,80111,6363 SOUTH FIDDLERS GREEN CIRCLE,,303-863-7414,US,CO,GREENWOOD VILLAGE,80111,6363 SOUTH FIDDLERS GREEN CIRCLE,,US,DE,841611629.0,DELTA HOLDCO CORP,20020109.0,1-LAF,0,1231.0,10-Q,20140630.0,2014.0,Q2,20140730,2014-07-29 20:41:00.0,0,1,nem-20140630.xml,1,,,,,
0001047469-14-006866,2809,AGNICO EAGLE MINES LTD,1040.0,CA,ON,TORONTO,M5C 2Y7,145 KING STREET EAST,SUITE 400,4169471212,CA,ON,TORONTO,M5C 2Y7,145 KING STREET EAST,SUITE 400,CA,ON,0.0,,,1-LAF,0,1231.0,6-K,20140630.0,2014.0,Q2,20140811,2014-08-11 15:14:00.0,0,1,aem-20140630.xml,1,,,,,
0001564590-14-004746,1164727,NEWMONT MINING CORP /DE/,1040.0,US,CO,GREENWOOD VILLAGE,80111,6363 SOUTH FIDDLERS GREEN CIRCLE,,303-863-7414,US,CO,GREENWOOD VILLAGE,80111,6363 SOUTH FIDDLERS GREEN CIRCLE,,US,DE,841611629.0,DELTA HOLDCO CORP,20020109.0,1-LAF,0,1231.0,10-Q,20140930.0,2014.0,Q3,20141030,2014-10-30 17:31:00.0,0,1,nem-20140930.xml,1,,,,,
0001564590-15-000777,1164727,NEWMONT MINING CORP /DE/,1040.0,US,CO,GREENWOOD VILLAGE,80111,6363 SOUTH FIDDLERS GREEN CIRCLE,,303-863-7414,US,CO,GREENWOOD VILLAGE,80111,6363 SOUTH FIDDLERS GREEN CIRCLE,,US,DE,841611629.0,DELTA HOLDCO CORP,20020109.0,1-LAF,1,1231.0,10-K,20141231.0,2014.0,FY,20150220,2015-02-19 21:45:00.0,0,1,nem-20141231.xml,1,,12677021696.0,20140630.0,,
0001564590-15-002819,1164727,NEWMONT MINING CORP /DE/,1040.0,US,CO,GREENWOOD VILLAGE,80111,6363 SOUTH FIDDLERS GREEN CIRCLE,,303-863-7414,US,CO,GREENWOOD VILLAGE,80111,6363 SOUTH FIDDLERS GREEN CIRCLE,,US,DE,841611629.0,DELTA HOLDCO CORP,20020109.0,1-LAF,0,1231.0,10-Q,20150331.0,2015.0,Q1,20150424,2015-04-23 21:41:00.0,0,1,nem-20150331.xml,1,,,,,
0001558370-15-001173,1164727,NEWMONT MINING CORP /DE/,1040.0,US,CO,GREENWOOD VILLAGE,80111,6363 SOUTH FIDDLERS GREEN CIRCLE,,303-863-7414,US,CO,GREENWOOD VILLAGE,80111,6363 SOUTH FIDDLERS GREEN CIRCLE,,US,DE,841611629.0,DELTA HOLDCO CORP,20020109.0,1-LAF,0,1231.0,10-Q,20150630.0,2015.0,Q2,20150723,2015-07-22 18:06:00.0,0,1,nem-20150630.xml,1,,,,,
